{"type": "FeatureCollection", "name": "zhejiang_eo_frame_footprints_v0", "metadata": {"status": "PROVISIONAL_REPRESENTATIVE_FRAME_GEOMETRY", "n_frames": 21, "metadata_retrieval_timestamp": "2026-10-02T03:06:26Z", "export_guard": "ACTIVE_DURING_FETCH", "s2_datatake_property_present_fraction_sampled": 1.0, "notes": "one representative scene per fixed frame key; S1 frames are approximate (along-track start varies per take)"}, "features": [{"type": "Feature", "geometry": {"type": "Polygon", "coordinates": [[[121.08255704764021, 27.021066740641356], [121.08265683139396, 27.02113764394566], [121.07413573453074, 27.516483937612758], [121.06539440760699, 28.011772038392767], [121.06531393938549, 28.011860939414152], [120.56875431824255, 28.003972133273614], [120.56831452537362, 28.003914549500607], [120.56510587062905, 28.00095075288091], [120.55892878219485, 27.994874919642157], [120.54090666554536, 27.929638920474037], [120.52748048855919, 27.877483512783243], [120.42965626961913, 27.482019964272855], [120.33241366421042, 27.086514149051162], [120.32377802296243, 27.043084090532115], [120.31966684798985, 27.012713772300536], [120.31975870743857, 27.008843228180375], [120.32227355471223, 27.00865661151545], [121.08255704764021, 27.021066740641356]]]}, "properties": {"frame_key": "MGRS:51RTL", "sensor": "sentinel2", "collection_id": "COPERNICUS/S2_SR_HARMONIZED", "representative_scene_id": "20170829T022549_20170829T023518_T51RTL", "representative_utc": "2017-08-29T02:40:04.835Z", "tile_ref": "51RTL", "orbit_direction": null, "relative_orbit_number": NaN, "metadata_retrieval_timestamp": "2026-10-02T03:06:26Z", "geometry_status": "PROVISIONAL_REPRESENTATIVE_FRAME_GEOMETRY", "representative_datatake_identifier": "GS2B_20170829T022549_002503_N05.00"}}, {"type": "Feature", "geometry": {"type": "Polygon", "coordinates": [[[120.5614972776231, 27.915673182761168], [120.56155041048575, 27.91564761436293], [121.06671145482034, 27.92366716416884], [121.06681203891947, 27.9237381797878], [121.0578858783868, 28.41897005202317], [121.04873161419177, 28.914142849699335], [121.04865043500564, 28.914231695937826], [120.80956023252801, 28.910553989411188], [120.80947091794478, 28.910510254846], [120.80714003868435, 28.90395537263781], [120.80540786882952, 28.89851029569032], [120.80256054327765, 28.887634509811686], [120.79801804504372, 28.8696952824991], [120.6835532412022, 28.41250393740297], [120.56992957992743, 27.95524594591916], [120.56100309702452, 27.918264716055162], [120.56105280498757, 27.91605258316665], [120.5614972776231, 27.915673182761168]]]}, "properties": {"frame_key": "MGRS:51RTM", "sensor": "sentinel2", "collection_id": "COPERNICUS/S2_SR_HARMONIZED", "representative_scene_id": "20170215T022751_20170215T023409_T51RTM", "representative_utc": "2017-02-15T02:39:49.553Z", "tile_ref": "51RTM", "orbit_direction": null, "relative_orbit_number": NaN, "metadata_retrieval_timestamp": "2026-10-02T03:06:26Z", "geometry_status": "PROVISIONAL_REPRESENTATIVE_FRAME_GEOMETRY", "representative_datatake_identifier": "GS2A_20170215T022751_008623_N05.00"}}, {"type": "Feature", "geometry": {"type": "Polygon", "coordinates": [[[121.01329161657219, 30.717950799063864], [121.01327437843295, 30.71795337272103], [119.86797958833638, 30.69536398567177], [119.86793262072605, 30.695326318606337], [119.86788044428302, 30.695293950586468], [119.86787761916202, 30.695279117127228], [119.87582171860838, 30.447983145059535], [119.88366772744934, 30.20068352969391], [119.89141698606824, 29.95337267843561], [119.89907039304799, 29.706050775042694], [119.89911373115761, 29.706010276000637], [119.89915097897206, 29.705965425969985], [119.89916810237149, 29.70596303375816], [121.03307815349538, 29.72767702707322], [121.03312522251598, 29.72771427551907], [121.03317719089281, 29.727746114421034], [121.03318016551304, 29.727760948958036], [121.02339913048952, 30.222836817038573], [121.013372119525, 30.71786477194078], [121.01332880544291, 30.71790562818759], [121.01329161657219, 30.717950799063864]]]}, "properties": {"frame_key": "MGRS:51RTP", "sensor": "sentinel2", "collection_id": "COPERNICUS/S2_SR_HARMONIZED", "representative_scene_id": "20170228T023631_20170228T024641_T51RTP", "representative_utc": "2017-02-28T02:49:16.359Z", "tile_ref": "51RTP", "orbit_direction": null, "relative_orbit_number": NaN, "metadata_retrieval_timestamp": "2026-10-02T03:06:26Z", "geometry_status": "PROVISIONAL_REPRESENTATIVE_FRAME_GEOMETRY", "representative_datatake_identifier": "GS2A_20170228T023631_008809_N05.00"}}, {"type": "Feature", "geometry": {"type": "Polygon", "coordinates": [[[120.97665931865018, 27.443930428483505], [120.9766968688881, 27.443883147728265], [120.98096194011188, 27.443945072448386], [120.98098408434015, 27.443962937890852], [120.98101358079604, 27.44395851649579], [120.98103336179804, 27.443972607978203], [120.98581501804586, 27.44837933585486], [120.99051806809857, 27.457121593972243], [121.00428964836244, 27.5006003646135], [121.14148652139247, 27.995818149504395], [121.14119859295909, 28.012592773304632], [121.14115733539742, 28.012632832611025], [121.14112158465977, 28.012680991448352], [121.13334471416943, 28.012801946768832], [120.96597357208812, 28.010426269426926], [120.96587299156464, 28.010355256427946], [120.97619129641167, 27.453430577470854], [120.97628626647138, 27.45099667625197], [120.97661686673551, 27.443969720086166], [120.97665931865018, 27.443930428483505]]]}, "properties": {"frame_key": "MGRS:51RUL", "sensor": "sentinel2", "collection_id": "COPERNICUS/S2_SR_HARMONIZED", "representative_scene_id": "20170228T023631_20170228T024641_T51RUL", "representative_utc": "2017-02-28T02:49:51.193Z", "tile_ref": "51RUL", "orbit_direction": null, "relative_orbit_number": NaN, "metadata_retrieval_timestamp": "2026-10-02T03:06:26Z", "geometry_status": "PROVISIONAL_REPRESENTATIVE_FRAME_GEOMETRY", "representative_datatake_identifier": "GS2A_20170228T023631_008809_N05.00"}}, {"type": "Feature", "geometry": {"type": "Polygon", "coordinates": [[[122.07457042070229, 28.9251464874867], [122.07455750313545, 28.925147135045552], [120.94861839248395, 28.912699539272634], [120.94857181592803, 28.91266228255516], [120.94852016145606, 28.912630397490545], [120.94851727230697, 28.91261551898179], [120.95814196064002, 28.41742018571561], [120.9675262131741, 27.922193418124454], [120.96756840565826, 27.922152606311286], [120.96760447059161, 27.92210736141682], [120.96762119001096, 27.9221048194413], [122.08313989033329, 27.934051093140877], [122.08318652858858, 27.934087999737958], [122.08323802136015, 27.934119416504576], [122.08324105544524, 27.934134193412643], [122.07900530328678, 28.42961811795603], [122.07466110371213, 28.925057789522604], [122.07461896993303, 28.925098984607455], [122.0745830781824, 28.925144479530708], [122.07457042070229, 28.9251464874867]]]}, "properties": {"frame_key": "MGRS:51RUM", "sensor": "sentinel2", "collection_id": "COPERNICUS/S2_SR_HARMONIZED", "representative_scene_id": "20170215T022751_20170215T023409_T51RUM", "representative_utc": "2017-02-15T02:39:46.162Z", "tile_ref": "51RUM", "orbit_direction": null, "relative_orbit_number": NaN, "metadata_retrieval_timestamp": "2026-10-02T03:06:26Z", "geometry_status": "PROVISIONAL_REPRESENTATIVE_FRAME_GEOMETRY", "representative_datatake_identifier": "GS2A_20170215T022751_008623_N05.00"}}, {"type": "Feature", "geometry": {"type": "Polygon", "coordinates": [[[121.03775049534542, 29.81598325717034], [121.03771952546963, 29.815973234359408], [121.03525835725304, 29.814853976072246], [121.03522100016092, 29.81482778550715], [121.03221437246476, 29.80935226581718], [121.0262603881342, 29.796263588033096], [120.9739414908624, 29.620073386822583], [120.94679620276973, 29.49189637423904], [120.93963018800332, 29.448475870531546], [120.93800408040426, 29.437075439575626], [120.9441518648384, 29.13057840321881], [120.95020487389111, 28.82407258937926], [120.95028603156398, 28.823983787855816], [122.0751902887132, 28.836386203060005], [122.07529232818482, 28.836456511011523], [122.07085694705408, 29.33184105044993], [122.06630927949026, 29.827167708069926], [122.06622821339681, 29.82725715258023], [121.03775049534542, 29.81598325717034]]]}, "properties": {"frame_key": "MGRS:51RUN", "sensor": "sentinel2", "collection_id": "COPERNICUS/S2_SR_HARMONIZED", "representative_scene_id": "20170215T022751_20170215T023409_T51RUN", "representative_utc": "2017-02-15T02:39:31.793Z", "tile_ref": "51RUN", "orbit_direction": null, "relative_orbit_number": NaN, "metadata_retrieval_timestamp": "2026-10-02T03:06:26Z", "geometry_status": "PROVISIONAL_REPRESENTATIVE_FRAME_GEOMETRY", "representative_datatake_identifier": "GS2A_20170215T022751_008623_N05.00"}}, {"type": "Feature", "geometry": {"type": "Polygon", "coordinates": [[[121.26129828489374, 30.659141451804278], [121.26131269294561, 30.659096305097236], [121.52111342217204, 30.582186754618206], [121.52614172943537, 30.581159538839437], [122.0588677669215, 30.491897277843716], [122.05992021880454, 30.491904879984283], [122.0600240067599, 30.49197521901623], [122.0577254748549, 30.72964950837961], [122.05764362197931, 30.729738906162392], [121.27716406171709, 30.721724901532163], [121.27710442913714, 30.721709944218553], [121.27647352681218, 30.721147961815852], [121.27645100076013, 30.721120973231265], [121.27527108361258, 30.716759398931394], [121.26882559689506, 30.691773165044683], [121.26180527261552, 30.66407149420609], [121.26122554603536, 30.661346990327637], [121.26126440413456, 30.659173459198605], [121.26129828489374, 30.659141451804278]]]}, "properties": {"frame_key": "MGRS:51RUP", "sensor": "sentinel2", "collection_id": "COPERNICUS/S2_SR_HARMONIZED", "representative_scene_id": "20170126T023851_20170126T023852_T51RUP", "representative_utc": "2017-01-26T02:39:08.988Z", "tile_ref": "51RUP", "orbit_direction": null, "relative_orbit_number": NaN, "metadata_retrieval_timestamp": "2026-10-02T03:06:26Z", "geometry_status": "PROVISIONAL_REPRESENTATIVE_FRAME_GEOMETRY", "representative_datatake_identifier": "GS2A_20170126T023851_008337_N05.00"}}, {"type": "Feature", "geometry": {"type": "Polygon", "coordinates": [[[122.05187734800231, 31.337613783595973], [122.05156682763969, 31.34198965228648], [122.03633107788437, 31.346222649717394], [121.97570399278837, 31.358731919765052], [121.79891570187854, 31.38747676958609], [121.58158987233406, 31.419863788613345], [121.470353210819, 31.435887387329057], [121.4608434698736, 31.435773442423674], [121.45582834698538, 31.43135084486349], [121.45091648845579, 31.422621981452707], [121.44125588184046, 31.396542554472845], [121.35617249787443, 31.068905571806656], [121.27162107108052, 30.741221026998073], [121.25291739007584, 30.66742421406613], [121.25314190949115, 30.65494400916021], [121.25827735776059, 30.650639796658414], [121.35857457659547, 30.638963501203982], [121.393665573169, 30.63507516064723], [121.44133757597456, 30.635429910936168], [122.05873900604327, 30.64136627722381], [122.05187734800231, 31.337613783595973]]]}, "properties": {"frame_key": "MGRS:51RUQ", "sensor": "sentinel2", "collection_id": "COPERNICUS/S2_SR_HARMONIZED", "representative_scene_id": "20170126T023851_20170126T023852_T51RUQ", "representative_utc": "2017-01-26T02:39:03.194Z", "tile_ref": "51RUQ", "orbit_direction": null, "relative_orbit_number": NaN, "metadata_retrieval_timestamp": "2026-10-02T03:06:26Z", "geometry_status": "PROVISIONAL_REPRESENTATIVE_FRAME_GEOMETRY", "representative_datatake_identifier": "GS2A_20170126T023851_008337_N05.00"}}, {"type": "Feature", "geometry": {"type": "Polygon", "coordinates": [[[123.84791120130241, 27.357820896041517], [123.84147793817732, 27.392120262989312], [123.69171201173201, 28.16846585461082], [123.5356070146573, 28.966328702739787], [122.12029875070762, 28.74581986104136], [121.00401180458236, 28.560770771522858], [121.0030813076806, 28.556759566084317], [121.00381341935756, 28.53471508654915], [121.00821850988682, 28.512562445751144], [121.05371676862583, 28.300831341365736], [121.08405904234448, 28.16208155884204], [121.11975034214034, 27.999824228439646], [121.15778891906817, 27.826651277886793], [121.20522777202362, 27.61031075481953], [121.26027391154994, 27.358837123921578], [121.3145853464078, 27.110214699368075], [121.37833245826279, 26.81783583245506], [122.22391753800139, 26.961890424417398], [123.0859083735248, 27.168401040586915], [123.84962233037778, 27.348252151056137], [123.84791120130241, 27.357820896041517]]]}, "properties": {"frame_key": "S1:ASCENDING:171", "sensor": "sentinel1", "collection_id": "COPERNICUS/S1_GRD", "representative_scene_id": "S1A_IW_GRDH_1SDV_20150708T095330_20150708T095359_006718_008FE4_5C76", "representative_utc": "2015-07-08T09:53:31.000Z", "tile_ref": null, "orbit_direction": "ASCENDING", "relative_orbit_number": 171.0, "metadata_retrieval_timestamp": "2026-10-02T03:06:26Z", "geometry_status": "PROVISIONAL_REPRESENTATIVE_FRAME_GEOMETRY"}}, {"type": "Feature", "geometry": {"type": "Polygon", "coordinates": [[[121.83780240140301, 27.09995782426412], [121.83813185846867, 27.100561585590818], [121.73931911056569, 27.610072230436522], [121.63949647379475, 28.119416201239243], [121.63785618115025, 28.12757663551556], [121.63687631125076, 28.127855471467633], [121.62950682281985, 28.129681475603], [121.62754614678879, 28.12966183929599], [121.50969083349212, 28.11164253020546], [120.96105842230756, 28.026343427161773], [120.84763986979766, 28.008418250811673], [120.8400160679463, 28.007167163397302], [119.99716944569731, 27.806097794378175], [119.15790279364441, 27.60012951484849], [119.15642086948415, 27.598153933124657], [119.15588134716783, 27.59594098128981], [119.22728932828689, 27.255836004834464], [119.29813170431464, 26.915654416322486], [119.35077391882376, 26.69132334734367], [119.35307953501128, 26.69138269061721], [120.5905023158917, 26.900544101098046], [121.83675702905359, 27.099636408048553], [121.83780240140301, 27.09995782426412]]]}, "properties": {"frame_key": "S1:ASCENDING:69", "sensor": "sentinel1", "collection_id": "COPERNICUS/S1_GRD", "representative_scene_id": "S1A_IW_GRDH_1SDV_20150619T100142_20150619T100159_006441_008853_46C1", "representative_utc": "2015-06-19T10:01:42.780Z", "tile_ref": null, "orbit_direction": "ASCENDING", "relative_orbit_number": 69.0, "metadata_retrieval_timestamp": "2026-10-02T03:06:26Z", "geometry_status": "PROVISIONAL_REPRESENTATIVE_FRAME_GEOMETRY"}}, {"type": "Feature", "geometry": {"type": "Polygon", "coordinates": [[[124.424254120197, 28.60825475370796], [125.7782323153839, 28.817834433728137], [125.82223205926844, 28.824638383924306], [125.65831646954209, 29.685018062086844], [125.49369601681767, 30.53738076505335], [125.32670930666822, 31.38959123422665], [125.15547648004043, 32.25009359190043], [124.99209678107655, 32.22730685852317], [124.81205822037948, 32.20187617903838], [124.5300340471344, 32.161223498966635], [120.88378281342139, 31.417716681031177], [120.88723791628355, 31.40182810650015], [120.99361771380808, 30.961352281670543], [121.06076993398914, 30.683087186409935], [121.23344466497927, 29.96288484912153], [121.40338056076303, 29.242284294745257], [121.61028046386704, 28.355468336846343], [121.66479858397273, 28.13675259841363], [121.67343925832655, 28.138115564336783], [123.06175056592686, 28.38283488247827], [124.424254120197, 28.60825475370796]]]}, "properties": {"frame_key": "S1:ASCENDING:98", "sensor": "sentinel1", "collection_id": "COPERNICUS/S1_GRD", "representative_scene_id": "S1A_EW_GRDM_1SDV_20180124T094557_20180124T094654_020295_022A7A_581D", "representative_utc": "2018-01-24T09:45:57.000Z", "tile_ref": null, "orbit_direction": "ASCENDING", "relative_orbit_number": 98.0, "metadata_retrieval_timestamp": "2026-10-02T03:06:26Z", "geometry_status": "PROVISIONAL_REPRESENTATIVE_FRAME_GEOMETRY"}}, {"type": "Feature", "geometry": {"type": "Polygon", "coordinates": [[[125.04618717807806, 30.581994321047667], [125.22262244194513, 31.31513882924598], [125.2759155100181, 31.538249123138534], [125.30958414230324, 31.691250694860166], [124.35883452857156, 31.854811339866224], [124.07399766689407, 31.901922333462366], [121.61441784059274, 32.16519668373418], [120.97409283301765, 32.21961939811623], [120.97281827933547, 32.21361525557799], [120.7878180730904, 31.299217029242122], [120.60582210761498, 30.384602971687983], [120.42660554880644, 29.469802242126484], [120.2499541335211, 28.5548407193254], [120.24143147194255, 28.503698952947115], [124.39452410836097, 27.814070914418007], [124.48242211114784, 28.18741546361652], [124.52663611135448, 28.375805513520458], [124.8727076336393, 29.848417891747122], [125.04618717807806, 30.581994321047667]]]}, "properties": {"frame_key": "S1:DESCENDING:105", "sensor": "sentinel1", "collection_id": "COPERNICUS/S1_GRD", "representative_scene_id": "S1A_EW_GRDM_1SDV_20180124T215011_20180124T215116_020302_022AB1_E39E", "representative_utc": "2018-01-24T21:50:11.000Z", "tile_ref": null, "orbit_direction": "DESCENDING", "relative_orbit_number": 105.0, "metadata_retrieval_timestamp": "2026-10-02T03:06:26Z", "geometry_status": "PROVISIONAL_REPRESENTATIVE_FRAME_GEOMETRY"}}, {"type": "Feature", "geometry": {"type": "Polygon", "coordinates": [[[120.00157821667116, 30.315406244468495], [121.36434386539904, 30.095080722596162], [121.37560609391097, 30.14138349070729], [121.50318801418956, 30.701882259314488], [121.63211618848555, 31.26225591222986], [121.66329223036975, 31.40025069362848], [121.70140981969328, 31.602185423887693], [121.70088519196271, 31.602623897942788], [121.04358493802789, 31.708861555201924], [120.38502043611587, 31.811635392473345], [119.72526187201098, 31.91091209936477], [119.05485840651674, 32.008012832918425], [118.98147994174677, 31.649690028486415], [118.90864455116377, 31.292002536887587], [118.83620585923582, 30.934306502370248], [118.76415035668062, 30.576602355083466], [118.75881589804823, 30.542987153310502], [118.75497389540743, 30.503733228877703], [119.44151623537594, 30.401558934299928], [120.00157821667116, 30.315406244468495]]]}, "properties": {"frame_key": "S1:DESCENDING:3", "sensor": "sentinel1", "collection_id": "COPERNICUS/S1_GRD", "representative_scene_id": "S1A_IW_GRDH_1SDV_20150521T215815_20150521T215840_006025_007C5F_07EA", "representative_utc": "2015-05-21T21:58:15.430Z", "tile_ref": null, "orbit_direction": "DESCENDING", "relative_orbit_number": 3.0, "metadata_retrieval_timestamp": "2026-10-02T03:06:26Z", "geometry_status": "PROVISIONAL_REPRESENTATIVE_FRAME_GEOMETRY"}}, {"type": "Feature", "geometry": {"type": "Polygon", "coordinates": [[[121.33861656558781, 29.670862958475194], [121.33837397145268, 29.666094898712796], [121.34137136990104, 29.6583343251183], [121.71378496632921, 29.608729812447283], [123.29626247895644, 29.385904781096002], [123.31050884470685, 29.387612742645913], [123.3538869924083, 29.55092729112093], [123.42436791348507, 29.81713656813235], [123.53876645057906, 30.246369831464538], [123.6032268672745, 30.48675530451769], [123.73055953453948, 30.959013714165486], [123.73742393372152, 30.98482599884542], [123.72571830259314, 30.993626023579214], [121.7386886562702, 31.270682859825403], [121.7336222838651, 31.269626030523], [121.73118536943946, 31.26341765367318], [121.694274986307, 31.117539618390794], [121.40115436483167, 29.929262512695253], [121.34875986539978, 29.71395987913333], [121.33861656558781, 29.670862958475194]]]}, "properties": {"frame_key": "WRS:117/039", "sensor": "landsat7", "collection_id": "LANDSAT/LE07/C02/T1_L2", "representative_scene_id": "LE07_117039_20220706", "representative_utc": "2022-07-06T00:50:14.243Z", "tile_ref": "117/039", "orbit_direction": null, "relative_orbit_number": NaN, "metadata_retrieval_timestamp": "2026-10-02T03:06:26Z", "geometry_status": "PROVISIONAL_REPRESENTATIVE_FRAME_GEOMETRY"}}, {"type": "Feature", "geometry": {"type": "Polygon", "coordinates": [[[121.53670956858289, 28.24596775830956], [121.53672934359926, 28.24452055601756], [121.61788998667156, 28.228745660136944], [122.92118239491052, 27.968142600654787], [123.36912685591697, 27.875411331274307], [123.3792058813303, 27.91368166609834], [123.450066987672, 28.18255350564869], [123.51395248583611, 28.423985510099513], [123.57614590587303, 28.658131795138434], [123.63164358554177, 28.866404686383042], [123.69459502463809, 29.10172050507383], [123.7580112044675, 29.337926123609165], [123.79835992010214, 29.487808693834282], [123.7130730697517, 29.505319258274316], [123.43978300153363, 29.561011582382317], [122.80466484856154, 29.688037573534842], [122.353554179105, 29.77621962764702], [121.9370626654878, 29.856129318545158], [121.9339615392707, 29.844457655945796], [121.72578026063573, 29.01260659793574], [121.53670956858289, 28.24596775830956]]]}, "properties": {"frame_key": "WRS:117/040", "sensor": "landsat8", "collection_id": "LANDSAT/LC08/C02/T1_L2", "representative_scene_id": "LC08_117040_20130409", "representative_utc": "2013-04-09T02:21:33.783Z", "tile_ref": "117/040", "orbit_direction": null, "relative_orbit_number": NaN, "metadata_retrieval_timestamp": "2026-10-02T03:06:26Z", "geometry_status": "PROVISIONAL_REPRESENTATIVE_FRAME_GEOMETRY"}}, {"type": "Feature", "geometry": {"type": "Polygon", "coordinates": [[[122.0641369473775, 26.579605262713528], [122.55749767553763, 26.50655094438638], [122.57025789210066, 26.516700239569396], [122.5780572237018, 26.546606155157313], [122.63570343232635, 26.774563348992764], [122.75148929260789, 27.230123062375526], [122.80867352880331, 27.45392989413497], [122.87811168655354, 27.724639601051283], [122.94563758917947, 27.987044115535383], [122.97652361284081, 28.107615094897096], [122.96851637047973, 28.116698460327196], [121.21214444793421, 28.36887303690924], [121.03104489425863, 28.393514505393316], [121.02873906333413, 28.38672340172495], [121.01394158888175, 28.326399170560677], [120.97648889819362, 28.171269768479654], [120.81324284710722, 27.486019423490376], [120.65019757185816, 26.794166594129802], [120.64743534159217, 26.77944647826588], [122.0641369473775, 26.579605262713528]]]}, "properties": {"frame_key": "WRS:117/041", "sensor": "landsat7", "collection_id": "LANDSAT/LE07/C02/T1_L2", "representative_scene_id": "LE07_117041_20220706", "representative_utc": "2022-07-06T00:51:01.942Z", "tile_ref": "117/041", "orbit_direction": null, "relative_orbit_number": NaN, "metadata_retrieval_timestamp": "2026-10-02T03:06:26Z", "geometry_status": "PROVISIONAL_REPRESENTATIVE_FRAME_GEOMETRY"}}, {"type": "Feature", "geometry": {"type": "Polygon", "coordinates": [[[122.4125763358237, 30.789814269895054], [122.62043873575276, 30.747120407171003], [122.6217493609667, 30.75171440857509], [122.67128291089958, 30.931453348319575], [122.73979491361887, 31.179168071006398], [122.80644067826543, 31.41920844294614], [122.85951212054408, 31.609558025178817], [122.88788506853153, 31.711030319594464], [122.96711437947938, 31.99350050117483], [123.02890866478472, 32.21292929165695], [123.06877700963761, 32.3540351145583], [122.7789219411325, 32.41252623909741], [122.03783532256071, 32.55869823762858], [121.45597715622027, 32.67006185459591], [121.13615055441609, 32.73000065752652], [121.13486250553073, 32.72529512859728], [120.92732439585016, 31.926980986886225], [120.72169880912334, 31.123385493390675], [120.73081202604024, 31.12159552028608], [121.07667753048219, 31.055353736962687], [122.14180671321901, 30.844878768539562], [122.4125763358237, 30.789814269895054]]]}, "properties": {"frame_key": "WRS:118/038", "sensor": "landsat8", "collection_id": "LANDSAT/LC08/C02/T1_L2", "representative_scene_id": "LC08_118038_20130525", "representative_utc": "2013-05-25T02:27:03.348Z", "tile_ref": "118/038", "orbit_direction": null, "relative_orbit_number": NaN, "metadata_retrieval_timestamp": "2026-10-02T03:06:26Z", "geometry_status": "PROVISIONAL_REPRESENTATIVE_FRAME_GEOMETRY"}}, {"type": "Feature", "geometry": {"type": "Polygon", "coordinates": [[[122.23036008076706, 29.312054040517793], [122.2415046641576, 29.353478887777502], [122.2631761461749, 29.434013619924976], [122.32635681104344, 29.66833621164991], [122.38973830342627, 29.90241491687998], [122.42067609566153, 30.016346769499748], [122.48338259388218, 30.246577792691795], [122.52492588483881, 30.398757675183123], [122.61111906827878, 30.713068936091545], [122.66808410311553, 30.91990728238995], [122.65971376532256, 30.921688293689975], [120.92234822686193, 31.263475391422425], [120.76510410619572, 31.293123125637013], [120.76358073282833, 31.287399688262212], [120.5676288388832, 30.517404617319595], [120.37236874936919, 29.739315424232753], [120.35910854527951, 29.685377769412888], [120.49178455825657, 29.659853095881672], [121.85411656262994, 29.389230225768767], [122.22892275331748, 29.312045714689425], [122.23036008076706, 29.312054040517793]]]}, "properties": {"frame_key": "WRS:118/039", "sensor": "landsat8", "collection_id": "LANDSAT/LC08/C02/T1_L2", "representative_scene_id": "LC08_118039_20130525", "representative_utc": "2013-05-25T02:27:27.247Z", "tile_ref": "118/039", "orbit_direction": null, "relative_orbit_number": NaN, "metadata_retrieval_timestamp": "2026-10-02T03:06:26Z", "geometry_status": "PROVISIONAL_REPRESENTATIVE_FRAME_GEOMETRY"}}, {"type": "Feature", "geometry": {"type": "Polygon", "coordinates": [[[120.0527801185981, 28.24700356574517], [120.06420620506627, 28.244733923520453], [120.30894858893535, 28.19707175275594], [121.77171707651502, 27.902027635093017], [121.89706797568742, 27.875934795474187], [121.92135665593125, 27.968276035504324], [121.99081233736906, 28.231742923886294], [122.04236701048636, 28.426729577054786], [122.10966159354055, 28.68026037367659], [122.20380306839003, 29.033225154128342], [122.2584163396296, 29.237149352450864], [122.32519695093241, 29.485440447397444], [122.0953287830628, 29.532458640171075], [120.69176349521518, 29.809886115828146], [120.45006464036837, 29.85598857772547], [120.44298071073283, 29.828107347153985], [120.25468644763687, 29.073142275737602], [120.06867361475462, 28.318022201228086], [120.05291386524176, 28.25301178463747], [120.05180782852476, 28.24740812022599], [120.0527801185981, 28.24700356574517]]]}, "properties": {"frame_key": "WRS:118/040", "sensor": "landsat8", "collection_id": "LANDSAT/LC08/C02/T1_L2", "representative_scene_id": "LC08_118040_20130423", "representative_utc": "2013-04-23T02:27:34.686Z", "tile_ref": "118/040", "orbit_direction": null, "relative_orbit_number": NaN, "metadata_retrieval_timestamp": "2026-10-02T03:06:26Z", "geometry_status": "PROVISIONAL_REPRESENTATIVE_FRAME_GEOMETRY"}}, {"type": "Feature", "geometry": {"type": "Polygon", "coordinates": [[[119.70128985973179, 26.80810035495058], [119.70193325485066, 26.80755220728954], [120.11839678751618, 26.725498853797358], [121.09094314087594, 26.52855630223509], [121.52341885272493, 26.438588567857437], [121.52928533310028, 26.461370533710465], [121.584141560407, 26.67425125567009], [121.65378323082935, 26.94345108638487], [121.71591862165565, 27.182767774227074], [121.74893079512097, 27.30957275156667], [121.78650154020535, 27.453647052892922], [121.85862795116441, 27.72935915136079], [121.92471857964021, 27.981041632749573], [121.94264568751125, 28.049182822817194], [121.93267088944623, 28.051313376603883], [121.17516497528675, 28.205398778563094], [120.19415740542513, 28.397989321343335], [120.09363463498606, 28.417278921507567], [120.08951780020368, 28.401803720062826], [120.06839795423703, 28.316934714942562], [119.8838866490321, 27.56275318301643], [119.70128985973179, 26.80810035495058]]]}, "properties": {"frame_key": "WRS:118/041", "sensor": "landsat8", "collection_id": "LANDSAT/LC08/C02/T1_L2", "representative_scene_id": "LC08_118041_20130423", "representative_utc": "2013-04-23T02:27:58.586Z", "tile_ref": "118/041", "orbit_direction": null, "relative_orbit_number": NaN, "metadata_retrieval_timestamp": "2026-10-02T03:06:26Z", "geometry_status": "PROVISIONAL_REPRESENTATIVE_FRAME_GEOMETRY"}}, {"type": "Feature", "geometry": {"type": "Polygon", "coordinates": [[[119.3583343545853, 29.68429915738982], [119.35627053104874, 29.67578537152849], [119.35622755841331, 29.673942887366355], [119.38176127443538, 29.669006274465744], [119.83880070363688, 29.580121660146222], [120.94948434546895, 29.356997996834096], [121.14478584840182, 29.31672335211676], [121.17334437941179, 29.310839923519538], [121.19583570295127, 29.39402067761544], [121.27389924260524, 29.6817343037274], [121.35845085735735, 29.993677680026924], [121.44381339524745, 30.307186355643847], [121.50658468463226, 30.53663010227126], [121.56757211566908, 30.758712630260735], [121.58557407879873, 30.824103967108616], [121.61494548131584, 30.930755936372865], [121.61500885723513, 30.93207381932168], [121.28939430005755, 30.998064751384113], [119.94786615521053, 31.26052294703698], [119.76578571825831, 31.29497543501344], [119.55999855782579, 30.48937654778756], [119.3583343545853, 29.68429915738982]]]}, "properties": {"frame_key": "WRS:119/039", "sensor": "landsat8", "collection_id": "LANDSAT/LC08/C02/T1_L2", "representative_scene_id": "LC08_119039_20130325", "representative_utc": "2013-03-25T02:30:46.797Z", "tile_ref": "119/039", "orbit_direction": null, "relative_orbit_number": NaN, "metadata_retrieval_timestamp": "2026-10-02T03:06:26Z", "geometry_status": "PROVISIONAL_REPRESENTATIVE_FRAME_GEOMETRY"}}]}