{
 "type": "FeatureCollection",
 "name": "zhejiang_bays_m21a_v0_provisional_tier_c",
 "metadata": {
  "status": "PROVISIONAL_TIER_C_DERIVED",
  "not_official": true,
  "base_coastline_id": "gshhg_v2_3_7_h_l1",
  "base_coastline_sha256": "d870bdbc90a074f87a8c09a9630abb5f18916314b9a196dba2e6866fd51ef325",
  "license_of_base": "LGPL-3.0-or-later (with GSHHG attribution notice; see LICENSE.TXT)",
  "attribution": "GSHHG v2.3.7 (c) University of Hawaii and NOAA; Wessel & Smith 1996, DOI 10.1029/96JB00104",
  "derivation": "named sections snapped to nearest GSHHG vertex within per-anchor radii; water=envelope-land; +2 km onshore belt; see configs/data/zhejiang_multibay_m21a.yaml"
 },
 "features": [
  {
   "type": "Feature",
   "geometry": {
    "coordinates": [
     [
      [
       [
        121.596846,
        30.033335
       ],
       [
        121.599046,
        30.036239
       ],
       [
        121.569537,
        30.058151
       ],
       [
        121.561397,
        30.084346
       ],
       [
        121.560166,
        30.084277
       ],
       [
        121.549663,
        30.094782
       ],
       [
        121.538076,
        30.099408
       ],
       [
        121.509541,
        30.143491
       ],
       [
        121.482429,
        30.175678
       ],
       [
        121.481083,
        30.178154
       ],
       [
        121.480442,
        30.177855
       ],
       [
        121.416971,
        30.238384
       ],
       [
        121.397916,
        30.253034
       ],
       [
        121.375843,
        30.263512
       ],
       [
        121.359958,
        30.243447
       ],
       [
        121.350384,
        30.281111
       ],
       [
        121.314815,
        30.2663
       ],
       [
        121.321543,
        30.288179
       ],
       [
        121.311915,
        30.280956
       ],
       [
        121.30479,
        30.298941
       ],
       [
        121.295667,
        30.29254
       ],
       [
        121.265504,
        30.301802
       ],
       [
        121.200929,
        30.297969
       ],
       [
        121.199624,
        30.304517
       ],
       [
        121.19188,
        30.302181
       ],
       [
        121.18256,
        30.21721
       ],
       [
        121.170723,
        30.216704
       ],
       [
        121.154499,
        30.288635
       ],
       [
        121.141549,
        30.283747
       ],
       [
        121.133944,
        30.282729
       ],
       [
        121.126973,
        30.275805
       ],
       [
        121.123639,
        30.274788
       ],
       [
        121.119535,
        30.233531
       ],
       [
        121.112414,
        30.236517
       ],
       [
        121.100209,
        30.251754
       ],
       [
        121.098709,
        30.242262
       ],
       [
        121.059647,
        30.258625
       ],
       [
        121.059647,
        30.258625
       ],
       [
        120.844194,
        30.349528
       ],
       [
        120.880797,
        30.367606
       ],
       [
        120.887898,
        30.371113
       ],
       [
        120.903361,
        30.37875
       ],
       [
        120.922009,
        30.388582
       ],
       [
        120.923526,
        30.389382
       ],
       [
        120.924322,
        30.389801
       ],
       [
        121.825018,
        30.864684
       ],
       [
        121.825018,
        30.864684
       ],
       [
        121.907806,
        30.908333
       ],
       [
        121.907806,
        30.908333
       ],
       [
        121.907806,
        30.908333
       ],
       [
        121.740833,
        29.971222
       ],
       [
        121.626437,
        30.019488
       ],
       [
        121.626437,
        30.019488
       ],
       [
        121.597659,
        30.031718
       ],
       [
        121.596846,
        30.033335
       ]
      ],
      [
       [
        121.872417,
        30.873722
       ],
       [
        121.879917,
        30.872056
       ],
       [
        121.872417,
        30.873722
       ],
       [
        121.858709,
        30.866243
       ],
       [
        121.872417,
        30.873722
       ]
      ],
      [
       [
        121.897028,
        30.890833
       ],
       [
        121.902,
        30.905028
       ],
       [
        121.897028,
        30.890833
       ],
       [
        121.887028,
        30.876639
       ],
       [
        121.897028,
        30.890833
       ]
      ],
      [
       [
        121.171528,
        30.307056
       ],
       [
        121.171528,
        30.307056
       ],
       [
        121.171998,
        30.311348
       ],
       [
        121.171528,
        30.307056
       ]
      ],
      [
       [
        121.216556,
        30.325444
       ],
       [
        121.216556,
        30.325444
       ],
       [
        121.217389,
        30.321264
       ],
       [
        121.216556,
        30.325444
       ]
      ],
      [
       [
        121.253208,
        30.319158
       ],
       [
        121.218222,
        30.317083
       ],
       [
        121.218222,
        30.317083
       ],
       [
        121.253208,
        30.319158
       ]
      ],
      [
       [
        121.276583,
        30.325389
       ],
       [
        121.264056,
        30.327917
       ],
       [
        121.276583,
        30.325389
       ],
       [
        121.276583,
        30.325389
       ]
      ],
      [
       [
        121.294528,
        30.314944
       ],
       [
        121.291639,
        30.312917
       ],
       [
        121.294528,
        30.314944
       ],
       [
        121.294528,
        30.314944
       ]
      ],
      [
       [
        121.295617,
        30.321374
       ],
       [
        121.292889,
        30.320833
       ],
       [
        121.294421,
        30.315327
       ],
       [
        121.292889,
        30.320833
       ],
       [
        121.295617,
        30.321374
       ]
      ],
      [
       [
        121.324917,
        30.314556
       ],
       [
        121.324917,
        30.314556
       ],
       [
        121.321583,
        30.312056
       ],
       [
        121.321118,
        30.31323
       ],
       [
        121.321583,
        30.312056
       ],
       [
        121.324917,
        30.314556
       ]
      ],
      [
       [
        121.342417,
        30.310417
       ],
       [
        121.349139,
        30.307917
       ],
       [
        121.342417,
        30.310417
       ],
       [
        121.337472,
        30.307889
       ],
       [
        121.337472,
        30.307889
       ],
       [
        121.342417,
        30.310417
       ]
      ],
      [
       [
        121.368718,
        30.292743
       ],
       [
        121.36825,
        30.294583
       ],
       [
        121.350694,
        30.30125
       ],
       [
        121.36825,
        30.294583
       ],
       [
        121.368718,
        30.292743
       ]
      ],
      [
       [
        121.373222,
        30.292056
       ],
       [
        121.369944,
        30.287917
       ],
       [
        121.369944,
        30.287917
       ],
       [
        121.373222,
        30.292056
       ]
      ],
      [
       [
        121.378222,
        30.290417
       ],
       [
        121.378222,
        30.290417
       ],
       [
        121.373222,
        30.292056
       ],
       [
        121.378222,
        30.290417
       ]
      ],
      [
       [
        121.492,
        30.203737
       ],
       [
        121.484889,
        30.200417
       ],
       [
        121.458236,
        30.225834
       ],
       [
        121.484889,
        30.200417
       ],
       [
        121.492,
        30.203737
       ]
      ],
      [
       [
        121.500333,
        30.204139
       ],
       [
        121.500333,
        30.204139
       ],
       [
        121.494472,
        30.195778
       ],
       [
        121.500333,
        30.204139
       ]
      ],
      [
       [
        121.54425,
        30.126667
       ],
       [
        121.527028,
        30.153278
       ],
       [
        121.500361,
        30.184944
       ],
       [
        121.527028,
        30.153278
       ],
       [
        121.54425,
        30.126667
       ]
      ],
      [
       [
        121.569083,
        30.102861
       ],
       [
        121.562389,
        30.109556
       ],
       [
        121.557625,
        30.111459
       ],
       [
        121.562389,
        30.109556
       ],
       [
        121.569083,
        30.102861
       ]
      ],
      [
       [
        121.577,
        30.103306
       ],
       [
        121.583391,
        30.08273
       ],
       [
        121.577,
        30.103306
       ],
       [
        121.569083,
        30.102861
       ],
       [
        121.577,
        30.103306
       ]
      ],
      [
       [
        121.622889,
        30.034917
       ],
       [
        121.620361,
        30.031583
       ],
       [
        121.622963,
        30.026404
       ],
       [
        121.620361,
        30.031583
       ],
       [
        121.622889,
        30.034917
       ],
       [
        121.620389,
        30.044111
       ],
       [
        121.60945,
        30.052236
       ],
       [
        121.620389,
        30.044111
       ],
       [
        121.622889,
        30.034917
       ]
      ],
      [
       [
        121.072444,
        30.265417
       ],
       [
        121.077476,
        30.259267
       ],
       [
        121.072444,
        30.265417
       ],
       [
        121.069083,
        30.265417
       ],
       [
        121.062857,
        30.260935
       ],
       [
        121.069083,
        30.265417
       ],
       [
        121.072444,
        30.265417
       ]
      ],
      [
       [
        121.080593,
        30.260359
       ],
       [
        121.079944,
        30.25625
       ],
       [
        121.079944,
        30.25625
       ],
       [
        121.080593,
        30.260359
       ]
      ],
      [
       [
        121.076139,
        30.269139
       ],
       [
        121.076139,
        30.269139
       ],
       [
        121.086556,
        30.279611
       ],
       [
        121.076139,
        30.269139
       ]
      ],
      [
       [
        121.099889,
        30.28375
       ],
       [
        121.099889,
        30.28375
       ],
       [
        121.086556,
        30.279611
       ],
       [
        121.099889,
        30.28375
       ]
      ],
      [
       [
        121.107216,
        30.2889
       ],
       [
        121.104083,
        30.287944
       ],
       [
        121.103289,
        30.279953
       ],
       [
        121.104083,
        30.287944
       ],
       [
        121.107216,
        30.2889
       ]
      ],
      [
       [
        121.127618,
        30.300137
       ],
       [
        121.123278,
        30.299556
       ],
       [
        121.118514,
        30.294823
       ],
       [
        121.123278,
        30.299556
       ],
       [
        121.127618,
        30.300137
       ]
      ],
      [
       [
        121.168638,
        30.312662
       ],
       [
        121.166639,
        30.312889
       ],
       [
        121.144532,
        30.304546
       ],
       [
        121.166639,
        30.312889
       ],
       [
        121.168638,
        30.312662
       ]
      ],
      [
       [
        121.589472,
        30.249139
       ],
       [
        121.589472,
        30.249139
       ],
       [
        121.592861,
        30.248333
       ],
       [
        121.589472,
        30.249139
       ]
      ],
      [
       [
        121.592806,
        30.250833
       ],
       [
        121.592806,
        30.250833
       ],
       [
        121.596972,
        30.250833
       ],
       [
        121.592806,
        30.250833
       ]
      ],
      [
       [
        121.601194,
        30.250806
       ],
       [
        121.601194,
        30.250806
       ],
       [
        121.598948,
        30.251358
       ],
       [
        121.601194,
        30.250806
       ]
      ],
      [
       [
        121.597806,
        30.253306
       ],
       [
        121.597806,
        30.251639
       ],
       [
        121.597806,
        30.251639
       ],
       [
        121.597806,
        30.253306
       ],
       [
        121.597806,
        30.253306
       ]
      ],
      [
       [
        121.602,
        30.283306
       ],
       [
        121.597778,
        30.281667
       ],
       [
        121.597778,
        30.281667
       ],
       [
        121.602,
        30.283306
       ],
       [
        121.602,
        30.283306
       ]
      ],
      [
       [
        121.597806,
        30.280806
       ],
       [
        121.597806,
        30.280806
       ],
       [
        121.597778,
        30.28166
       ],
       [
        121.597806,
        30.280806
       ]
      ],
      [
       [
        121.578694,
        30.287472
       ],
       [
        121.578639,
        30.285806
       ],
       [
        121.578751,
        30.285805
       ],
       [
        121.578639,
        30.285806
       ],
       [
        121.578694,
        30.287472
       ],
       [
        121.579597,
        30.286854
       ],
       [
        121.578694,
        30.287472
       ]
      ],
      [
       [
        120.912944,
        30.366639
       ],
       [
        120.912944,
        30.366639
       ],
       [
        120.916278,
        30.365328
       ],
       [
        120.912944,
        30.366639
       ]
      ],
      [
       [
        120.917111,
        30.365
       ],
       [
        120.917111,
        30.365
       ],
       [
        120.915027,
        30.364986
       ],
       [
        120.917111,
        30.365
       ]
      ],
      [
       [
        121.625417,
        30.056611
       ],
       [
        121.625417,
        30.056611
       ],
       [
        121.625389,
        30.058278
       ],
       [
        121.625417,
        30.056611
       ]
      ],
      [
       [
        121.650778,
        30.255417
       ],
       [
        121.650778,
        30.255417
       ],
       [
        121.648639,
        30.256639
       ],
       [
        121.648639,
        30.256653
       ],
       [
        121.648639,
        30.256639
       ],
       [
        121.650778,
        30.255417
       ]
      ],
      [
       [
        121.651194,
        30.258333
       ],
       [
        121.650014,
        30.257927
       ],
       [
        121.651194,
        30.258333
       ],
       [
        121.651194,
        30.258333
       ]
      ],
      [
       [
        121.650361,
        30.260833
       ],
       [
        121.647847,
        30.26082
       ],
       [
        121.650361,
        30.260833
       ],
       [
        121.650361,
        30.260833
       ]
      ],
      [
       [
        121.585306,
        30.598306
       ],
       [
        121.590333,
        30.599167
       ],
       [
        121.590333,
        30.599167
       ],
       [
        121.585306,
        30.598306
       ],
       [
        121.585306,
        30.598306
       ]
      ],
      [
       [
        121.609473,
        30.611679
       ],
       [
        121.609528,
        30.613278
       ],
       [
        121.611251,
        30.613297
       ],
       [
        121.609528,
        30.613278
       ],
       [
        121.609473,
        30.611679
       ]
      ],
      [
       [
        121.609472,
        30.611639
       ],
       [
        121.611164,
        30.612731
       ],
       [
        121.609472,
        30.611639
       ],
       [
        121.609472,
        30.611639
       ]
      ],
      [
       [
        121.6345,
        30.614139
       ],
       [
        121.624083,
        30.609556
       ],
       [
        121.612833,
        30.612472
       ],
       [
        121.624083,
        30.609556
       ],
       [
        121.6345,
        30.614139
       ]
      ],
      [
       [
        121.628222,
        30.620417
       ],
       [
        121.628222,
        30.620417
       ],
       [
        121.6345,
        30.614139
       ],
       [
        121.628222,
        30.620417
       ]
      ],
      [
       [
        121.624083,
        30.614528
       ],
       [
        121.612833,
        30.613333
       ],
       [
        121.612833,
        30.613333
       ],
       [
        121.624083,
        30.614528
       ],
       [
        121.624702,
        30.615408
       ],
       [
        121.624083,
        30.614528
       ]
      ],
      [
       [
        121.605306,
        30.617472
       ],
       [
        121.605306,
        30.615833
       ],
       [
        121.606147,
        30.61599
       ],
       [
        121.605306,
        30.615833
       ],
       [
        121.605306,
        30.617472
       ],
       [
        121.609472,
        30.616611
       ],
       [
        121.609472,
        30.616611
       ],
       [
        121.605306,
        30.617472
       ]
      ],
      [
       [
        121.632833,
        30.618361
       ],
       [
        121.636167,
        30.616667
       ],
       [
        121.632833,
        30.618361
       ],
       [
        121.632833,
        30.618361
       ]
      ],
      [
       [
        121.725333,
        30.251639
       ],
       [
        121.72415,
        30.252492
       ],
       [
        121.725333,
        30.251639
       ],
       [
        121.725333,
        30.251639
       ]
      ],
      [
       [
        121.722444,
        30.253722
       ],
       [
        121.717332,
        30.2528
       ],
       [
        121.722444,
        30.253722
       ],
       [
        121.722444,
        30.253722
       ]
      ],
      [
       [
        121.715361,
        30.252444
       ],
       [
        121.715389,
        30.249972
       ],
       [
        121.715361,
        30.252444
       ],
       [
        121.715361,
        30.252444
       ]
      ],
      [
       [
        121.718667,
        30.265833
       ],
       [
        121.718667,
        30.265833
       ],
       [
        121.718694,
        30.268278
       ],
       [
        121.718694,
        30.268278
       ],
       [
        121.718667,
        30.265833
       ]
      ],
      [
       [
        121.705333,
        30.558306
       ],
       [
        121.705333,
        30.556639
       ],
       [
        121.706394,
        30.556487
       ],
       [
        121.705333,
        30.556639
       ],
       [
        121.705333,
        30.558306
       ],
       [
        121.70573,
        30.560262
       ],
       [
        121.705333,
        30.558306
       ]
      ],
      [
       [
        121.7045,
        30.559944
       ],
       [
        121.700389,
        30.560833
       ],
       [
        121.7045,
        30.559944
       ],
       [
        121.7045,
        30.559944
       ]
      ],
      [
       [
        121.700778,
        30.56125
       ],
       [
        121.700778,
        30.56125
       ],
       [
        121.700389,
        30.560833
       ],
       [
        121.700778,
        30.56125
       ]
      ],
      [
       [
        121.709472,
        30.569167
       ],
       [
        121.712797,
        30.567493
       ],
       [
        121.709472,
        30.569167
       ],
       [
        121.709472,
        30.569167
       ]
      ],
      [
       [
        121.717806,
        30.564972
       ],
       [
        121.713222,
        30.571222
       ],
       [
        121.717806,
        30.564972
       ],
       [
        121.717806,
        30.564972
       ]
      ],
      [
       [
        121.726273,
        30.575382
       ],
       [
        121.7195,
        30.572472
       ],
       [
        121.719472,
        30.575
       ],
       [
        121.724411,
        30.578214
       ],
       [
        121.719472,
        30.575
       ],
       [
        121.7195,
        30.572472
       ],
       [
        121.726273,
        30.575382
       ]
      ],
      [
       [
        121.746167,
        30.574972
       ],
       [
        121.743722,
        30.575
       ],
       [
        121.743722,
        30.575806
       ],
       [
        121.746583,
        30.582083
       ],
       [
        121.746583,
        30.582083
       ],
       [
        121.743722,
        30.575806
       ],
       [
        121.743722,
        30.575
       ],
       [
        121.746167,
        30.574972
       ]
      ],
      [
       [
        121.736194,
        30.586611
       ],
       [
        121.731611,
        30.584583
       ],
       [
        121.730758,
        30.585425
       ],
       [
        121.731611,
        30.584583
       ],
       [
        121.736194,
        30.586611
       ]
      ]
     ]
    ],
    "type": "MultiPolygon"
   },
   "properties": {
    "roi_id": "ZJ-HZB",
    "name_zh": "杭州湾",
    "name_en": "Hangzhou Bay",
    "status": "PROVISIONAL_TIER_C_DERIVED",
    "provenance_tier": "C_DERIVED",
    "onshore_belt_m": 2000.0,
    "geometry_fingerprint": "7b096186ac5238ef7ff8c479fdc84be263ddd0cc99cd7127540c29e2ce476f00",
    "logical_fingerprint": "35937aff31505d26577a463704413bbdac29633b6b92c8bc73ad223d2cb67480",
    "base_coastline": "GSHHG v2.3.7 (c) UH/NOAA, LGPL-3.0-or-later; Wessel & Smith 1996, DOI 10.1029/96JB00104",
    "derived_for": "Spartina Earth M2.1a sampling frame; not an official government boundary"
   }
  },
  {
   "type": "Feature",
   "geometry": {
    "geometries": [
     {
      "coordinates": [
       121.897889,
       29.006639
      ],
      "type": "Point"
     },
     {
      "coordinates": [
       [
        [
         121.644583,
         28.9753
        ],
        [
         121.64354,
         28.975808
        ],
        [
         121.644117,
         28.98068
        ],
        [
         121.643324,
         28.983732
        ],
        [
         121.644679,
         28.985436
        ],
        [
         121.647533,
         29.00955
        ],
        [
         121.643149,
         29.009988
        ],
        [
         121.646367,
         29.014173
        ],
        [
         121.632665,
         29.02363
        ],
        [
         121.630302,
         29.022538
        ],
        [
         121.611214,
         29.024902
        ],
        [
         121.588763,
         29.012488
        ],
        [
         121.575644,
         29.02397
        ],
        [
         121.584211,
         29.012046
        ],
        [
         121.469154,
         28.954223
        ],
        [
         121.511847,
         29.018681
        ],
        [
         121.50882,
         29.02986
        ],
        [
         121.515084,
         29.036143
        ],
        [
         121.506935,
         29.041573
        ],
        [
         121.514645,
         29.049201
        ],
        [
         121.490469,
         29.064776
        ],
        [
         121.511681,
         29.071731
        ],
        [
         121.47628,
         29.082177
        ],
        [
         121.448178,
         29.02531
        ],
        [
         121.44256,
         29.091407
        ],
        [
         121.438789,
         29.096137
        ],
        [
         121.400011,
         29.094696
        ],
        [
         121.400012,
         29.125925
        ],
        [
         121.407106,
         29.128694
        ],
        [
         121.400013,
         29.154549
        ],
        [
         121.400013,
         29.17079
        ],
        [
         121.419442,
         29.205167
        ],
        [
         121.425055,
         29.199509
        ],
        [
         121.427277,
         29.202529
        ],
        [
         121.443644,
         29.186564
        ],
        [
         121.45794,
         29.184841
        ],
        [
         121.461082,
         29.191511
        ],
        [
         121.408723,
         29.236581
        ],
        [
         121.405442,
         29.235954
        ],
        [
         121.403807,
         29.240809
        ],
        [
         121.400012,
         29.244073
        ],
        [
         121.400011,
         29.251964
        ],
        [
         121.400056,
         29.251947
        ],
        [
         121.400011,
         29.252078
        ],
        [
         121.400011,
         29.258709
        ],
        [
         121.508326,
         29.294408
        ],
        [
         121.516964,
         29.292238
        ],
        [
         121.51808,
         29.293712
        ],
        [
         121.543455,
         29.299238
        ],
        [
         121.556122,
         29.290047
        ],
        [
         121.568346,
         29.294588
        ],
        [
         121.566278,
         29.335117
        ],
        [
         121.596636,
         29.322325
        ],
        [
         121.597797,
         29.319809
        ],
        [
         121.598877,
         29.32138
        ],
        [
         121.632787,
         29.307078
        ],
        [
         121.626667,
         29.307056
        ],
        [
         121.622861,
         29.298306
        ],
        [
         121.626667,
         29.307056
        ],
        [
         121.632787,
         29.307078
        ],
        [
         121.643266,
         29.30267
        ],
        [
         121.644753,
         29.298571
        ],
        [
         121.643266,
         29.30267
        ],
        [
         121.646839,
         29.301167
        ],
        [
         121.646839,
         29.301167
        ],
        [
         121.656404,
         29.297144
        ],
        [
         121.703855,
         29.277203
        ],
        [
         121.672942,
         29.269062
        ],
        [
         121.667051,
         29.223255
        ],
        [
         121.673596,
         29.194144
        ],
        [
         121.690044,
         29.1913
        ],
        [
         121.7001,
         29.192976
        ],
        [
         121.701173,
         29.193885
        ],
        [
         121.698315,
         29.199044
        ],
        [
         121.714118,
         29.219179
        ],
        [
         121.740689,
         29.219402
        ],
        [
         121.741882,
         29.217413
        ],
        [
         121.756008,
         29.249163
        ],
        [
         121.756641,
         29.25499
        ],
        [
         121.776409,
         29.246663
        ],
        [
         121.792212,
         29.240016
        ],
        [
         121.792212,
         29.240016
        ],
        [
         121.814206,
         29.230764
        ],
        [
         121.814206,
         29.230764
        ],
        [
         121.820721,
         29.228024
        ],
        [
         121.840102,
         29.219878
        ],
        [
         121.82698,
         29.207265
        ],
        [
         121.83971,
         29.19286
        ],
        [
         121.846503,
         29.191842
        ],
        [
         121.850599,
         29.186257
        ],
        [
         121.857529,
         29.191152
        ],
        [
         121.871567,
         29.189218
        ],
        [
         121.874637,
         29.19344
        ],
        [
         121.883738,
         29.196508
        ],
        [
         121.887278,
         29.200035
        ],
        [
         121.909906,
         29.190508
        ],
        [
         121.909906,
         29.190508
        ],
        [
         121.93004,
         29.182039
        ],
        [
         121.929704,
         29.180936
        ],
        [
         121.93004,
         29.182039
        ],
        [
         121.948912,
         29.174102
        ],
        [
         121.945096,
         29.161573
        ],
        [
         121.923889,
         29.151378
        ],
        [
         121.920715,
         29.131684
        ],
        [
         121.92353,
         29.131753
        ],
        [
         121.934737,
         29.101562
        ],
        [
         121.938616,
         29.099644
        ],
        [
         121.9374,
         29.096943
        ],
        [
         121.961744,
         29.105141
        ],
        [
         121.954139,
         29.059583
        ],
        [
         121.954139,
         29.059583
        ],
        [
         121.945358,
         29.051318
        ],
        [
         121.932233,
         29.038964
        ],
        [
         121.897889,
         29.006639
        ],
        [
         121.688825,
         28.980757
        ],
        [
         121.688749,
         28.980747
        ],
        [
         121.688749,
         28.980747
        ],
        [
         121.665887,
         28.977917
        ],
        [
         121.644583,
         28.9753
        ]
       ],
       [
        [
         121.671701,
         28.983756
        ],
        [
         121.670417,
         28.983333
        ],
        [
         121.670417,
         28.982528
        ],
        [
         121.670417,
         28.982528
        ],
        [
         121.670417,
         28.983333
        ],
        [
         121.671701,
         28.983756
        ]
       ],
       [
        [
         121.67156,
         28.983282
        ],
        [
         121.672861,
         28.984139
        ],
        [
         121.672861,
         28.984139
        ],
        [
         121.67156,
         28.983282
        ]
       ],
       [
        [
         121.675028,
         29.067083
        ],
        [
         121.677889,
         29.06
        ],
        [
         121.675028,
         29.067083
        ],
        [
         121.672026,
         29.067894
        ],
        [
         121.675028,
         29.067083
        ]
       ],
       [
        [
         121.672056,
         29.0775
        ],
        [
         121.672056,
         29.0775
        ],
        [
         121.665388,
         29.07584
        ],
        [
         121.672056,
         29.0775
        ]
       ],
       [
        [
         121.665361,
         29.075833
        ],
        [
         121.665361,
         29.075833
        ],
        [
         121.665416,
         29.074194
        ],
        [
         121.665361,
         29.075833
        ]
       ],
       [
        [
         121.495389,
         29.119972
        ],
        [
         121.495403,
         29.121211
        ],
        [
         121.495389,
         29.119972
        ],
        [
         121.5,
         29.11625
        ],
        [
         121.495389,
         29.119972
        ]
       ],
       [
        [
         121.523333,
         29.123722
        ],
        [
         121.529972,
         29.127917
        ],
        [
         121.529972,
         29.127917
        ],
        [
         121.523333,
         29.123722
        ],
        [
         121.514583,
         29.123278
        ],
        [
         121.514583,
         29.123278
        ],
        [
         121.523333,
         29.123722
        ]
       ],
       [
        [
         121.5225,
         29.112083
        ],
        [
         121.5225,
         29.112083
        ],
        [
         121.53875,
         29.117472
        ],
        [
         121.5225,
         29.112083
        ]
       ],
       [
        [
         121.553048,
         29.134829
        ],
        [
         121.552056,
         29.135778
        ],
        [
         121.552056,
         29.135778
        ],
        [
         121.553048,
         29.134829
        ]
       ],
       [
        [
         121.677861,
         29.138306
        ],
        [
         121.677861,
         29.138306
        ],
        [
         121.674527,
         29.136954
        ],
        [
         121.677861,
         29.138306
        ]
       ],
       [
        [
         121.67375,
         29.136639
        ],
        [
         121.67375,
         29.136639
        ],
        [
         121.67375,
         29.135778
        ],
        [
         121.67375,
         29.135778
        ],
        [
         121.67375,
         29.136639
        ]
       ],
       [
        [
         121.571667,
         29.276222
        ],
        [
         121.563713,
         29.273267
        ],
        [
         121.571667,
         29.276222
        ],
        [
         121.571667,
         29.276222
        ]
       ],
       [
        [
         121.538333,
         29.279528
        ],
        [
         121.535824,
         29.278982
        ],
        [
         121.538333,
         29.279528
        ],
        [
         121.539877,
         29.278408
        ],
        [
         121.538333,
         29.279528
        ]
       ],
       [
        [
         121.525778,
         29.27125
        ],
        [
         121.525778,
         29.27125
        ],
        [
         121.529425,
         29.276066
        ],
        [
         121.525778,
         29.27125
        ]
       ],
       [
        [
         121.500417,
         29.272528
        ],
        [
         121.506024,
         29.273594
        ],
        [
         121.500417,
         29.272528
        ],
        [
         121.500417,
         29.272528
        ]
       ],
       [
        [
         121.524167,
         29.269583
        ],
        [
         121.532472,
         29.272861
        ],
        [
         121.536548,
         29.269854
        ],
        [
         121.532472,
         29.272861
        ],
        [
         121.524167,
         29.269583
        ],
        [
         121.51725,
         29.269583
        ],
        [
         121.524167,
         29.269583
        ]
       ],
       [
        [
         121.525361,
         29.190806
        ],
        [
         121.533306,
         29.187917
        ],
        [
         121.533306,
         29.187917
        ],
        [
         121.525361,
         29.190806
        ],
        [
         121.519556,
         29.208333
        ],
        [
         121.525361,
         29.190806
        ]
       ],
       [
        [
         121.514556,
         29.179167
        ],
        [
         121.514556,
         29.179167
        ],
        [
         121.518306,
         29.182056
        ],
        [
         121.514556,
         29.179167
        ]
       ],
       [
        [
         121.517083,
         29.175806
        ],
        [
         121.517083,
         29.175806
        ],
        [
         121.515163,
         29.178359
        ],
        [
         121.517083,
         29.175806
        ]
       ],
       [
        [
         121.495778,
         29.159583
        ],
        [
         121.495775,
         29.159673
        ],
        [
         121.495778,
         29.159583
        ],
        [
         121.507528,
         29.174556
        ],
        [
         121.495778,
         29.159583
        ]
       ],
       [
        [
         121.489528,
         29.176639
        ],
        [
         121.49375,
         29.182472
        ],
        [
         121.492917,
         29.195833
        ],
        [
         121.49375,
         29.182472
        ],
        [
         121.489528,
         29.176639
        ],
        [
         121.492978,
         29.173694
        ],
        [
         121.489528,
         29.176639
        ]
       ],
       [
        [
         121.483778,
         29.192444
        ],
        [
         121.48875,
         29.19
        ],
        [
         121.48875,
         29.19
        ],
        [
         121.483778,
         29.192444
        ],
        [
         121.483778,
         29.192444
        ]
       ],
       [
        [
         121.485444,
         29.183306
        ],
        [
         121.485444,
         29.183306
        ],
        [
         121.487648,
         29.184973
        ],
        [
         121.485444,
         29.183306
        ]
       ],
       [
        [
         121.463722,
         29.160028
        ],
        [
         121.454139,
         29.167083
        ],
        [
         121.433389,
         29.169583
        ],
        [
         121.429972,
         29.172917
        ],
        [
         121.429972,
         29.172917
        ],
        [
         121.433389,
         29.169583
        ],
        [
         121.454139,
         29.167083
        ],
        [
         121.463722,
         29.160028
        ],
        [
         121.464313,
         29.157453
        ],
        [
         121.463722,
         29.160028
        ]
       ],
       [
        [
         121.41875,
         29.163333
        ],
        [
         121.41875,
         29.163333
        ],
        [
         121.420556,
         29.166528
        ],
        [
         121.41875,
         29.163333
        ]
       ],
       [
        [
         121.438361,
         29.162083
        ],
        [
         121.438361,
         29.162083
        ],
        [
         121.422528,
         29.149556
        ],
        [
         121.438361,
         29.162083
        ]
       ],
       [
        [
         121.455806,
         29.139528
        ],
        [
         121.464944,
         29.142889
        ],
        [
         121.467066,
         29.141402
        ],
        [
         121.464944,
         29.142889
        ],
        [
         121.455806,
         29.139528
        ],
        [
         121.455806,
         29.139528
        ]
       ],
       [
        [
         121.457917,
         29.124139
        ],
        [
         121.452889,
         29.12
        ],
        [
         121.452444,
         29.115417
        ],
        [
         121.45024,
         29.115963
        ],
        [
         121.452444,
         29.115417
        ],
        [
         121.452889,
         29.12
        ],
        [
         121.457917,
         29.124139
        ],
        [
         121.456134,
         29.12454
        ],
        [
         121.457917,
         29.124139
        ]
       ],
       [
        [
         121.437917,
         29.114167
        ],
        [
         121.449167,
         29.114583
        ],
        [
         121.437917,
         29.114167
        ],
        [
         121.437917,
         29.114167
        ]
       ],
       [
        [
         121.455833,
         29.106222
        ],
        [
         121.455833,
         29.106222
        ],
        [
         121.45333,
         29.109362
        ],
        [
         121.455833,
         29.106222
        ]
       ],
       [
        [
         121.462472,
         29.099556
        ],
        [
         121.464944,
         29.104556
        ],
        [
         121.473333,
         29.102083
        ],
        [
         121.464944,
         29.104556
        ],
        [
         121.462472,
         29.099556
        ],
        [
         121.462464,
         29.099651
        ],
        [
         121.462472,
         29.099556
        ]
       ],
       [
        [
         121.468722,
         29.104944
        ],
        [
         121.471722,
         29.107056
        ],
        [
         121.495806,
         29.104556
        ],
        [
         121.514556,
         29.107889
        ],
        [
         121.495806,
         29.104556
        ],
        [
         121.471722,
         29.107056
        ],
        [
         121.468722,
         29.104944
        ],
        [
         121.473333,
         29.102083
        ],
        [
         121.468722,
         29.104944
        ]
       ],
       [
        [
         121.6275,
         29.108722
        ],
        [
         121.635662,
         29.107372
        ],
        [
         121.6275,
         29.108722
        ],
        [
         121.6225,
         29.106222
        ],
        [
         121.6275,
         29.108722
        ]
       ],
       [
        [
         121.638333,
         29.102889
        ],
        [
         121.638333,
         29.102889
        ],
        [
         121.644167,
         29.100417
        ],
        [
         121.644167,
         29.100417
        ],
        [
         121.638333,
         29.102889
        ]
       ],
       [
        [
         121.629583,
         29.079139
        ],
        [
         121.629583,
         29.079139
        ],
        [
         121.63041,
         29.081212
        ],
        [
         121.629583,
         29.079139
        ]
       ],
       [
        [
         121.634583,
         29.055806
        ],
        [
         121.632358,
         29.051848
        ],
        [
         121.634583,
         29.055806
        ],
        [
         121.631748,
         29.059077
        ],
        [
         121.634583,
         29.055806
        ]
       ],
       [
        [
         121.579167,
         29.054528
        ],
        [
         121.553278,
         29.057917
        ],
        [
         121.579167,
         29.054528
        ],
        [
         121.590861,
         29.044583
        ],
        [
         121.579167,
         29.054528
        ]
       ],
       [
        [
         121.542111,
         29.040778
        ],
        [
         121.542084,
         29.038295
        ],
        [
         121.542111,
         29.040778
        ],
        [
         121.537028,
         29.044167
        ],
        [
         121.542111,
         29.040778
        ]
       ],
       [
        [
         121.53125,
         29.024972
        ],
        [
         121.531667,
         29.023431
        ],
        [
         121.53125,
         29.024972
        ],
        [
         121.53125,
         29.024972
        ]
       ],
       [
        [
         121.525417,
         29.003306
        ],
        [
         121.555389,
         29.018361
        ],
        [
         121.555389,
         29.018361
        ],
        [
         121.525417,
         29.003306
        ],
        [
         121.525417,
         29.003306
        ]
       ],
       [
        [
         121.549611,
         29.050833
        ],
        [
         121.552608,
         29.053182
        ],
        [
         121.549611,
         29.050833
        ],
        [
         121.542083,
         29.024972
        ],
        [
         121.542083,
         29.024972
        ],
        [
         121.549611,
         29.050833
        ]
       ],
       [
        [
         121.571667,
         29.052917
        ],
        [
         121.587223,
         29.039306
        ],
        [
         121.571667,
         29.052917
        ],
        [
         121.568847,
         29.053045
        ],
        [
         121.571667,
         29.052917
        ]
       ],
       [
        [
         121.655389,
         29.040833
        ],
        [
         121.665417,
         29.049111
        ],
        [
         121.665417,
         29.049111
        ],
        [
         121.655389,
         29.040833
        ]
       ],
       [
        [
         121.673333,
         29.02875
        ],
        [
         121.672923,
         29.035677
        ],
        [
         121.673333,
         29.02875
        ],
        [
         121.664972,
         29.025389
        ],
        [
         121.673333,
         29.02875
        ]
       ],
       [
        [
         121.678306,
         29.037889
        ],
        [
         121.678373,
         29.037556
        ],
        [
         121.678306,
         29.037889
        ],
        [
         121.672917,
         29.035778
        ],
        [
         121.672917,
         29.035778
        ],
        [
         121.678306,
         29.037889
        ]
       ],
       [
        [
         121.694167,
         29.027917
        ],
        [
         121.694167,
         29.027917
        ],
        [
         121.691237,
         29.026081
        ],
        [
         121.694167,
         29.027917
        ]
       ],
       [
        [
         121.702528,
         29.017917
        ],
        [
         121.710389,
         29.016667
        ],
        [
         121.702556,
         29.010389
        ],
        [
         121.702556,
         29.010389
        ],
        [
         121.710389,
         29.016667
        ],
        [
         121.702528,
         29.017917
        ],
        [
         121.702528,
         29.017917
        ]
       ],
       [
        [
         121.682028,
         29.0125
        ],
        [
         121.67625,
         29.0
        ],
        [
         121.682028,
         29.0125
        ],
        [
         121.678267,
         29.015098
        ],
        [
         121.682028,
         29.0125
        ]
       ],
       [
        [
         121.682917,
         28.989972
        ],
        [
         121.681028,
         28.989347
        ],
        [
         121.682917,
         28.989972
        ],
        [
         121.682104,
         28.994051
        ],
        [
         121.682917,
         28.989972
        ]
       ],
       [
        [
         121.671639,
         28.99375
        ],
        [
         121.679139,
         28.988722
        ],
        [
         121.679139,
         28.988722
        ],
        [
         121.671639,
         28.99375
        ]
       ],
       [
        [
         121.66625,
         28.993306
        ],
        [
         121.665806,
         28.989556
        ],
        [
         121.66625,
         28.993306
        ],
        [
         121.668208,
         28.993467
        ],
        [
         121.66625,
         28.993306
        ]
       ],
       [
        [
         121.634032,
         29.187487
        ],
        [
         121.643306,
         29.18625
        ],
        [
         121.643306,
         29.18625
        ],
        [
         121.634032,
         29.187487
        ]
       ],
       [
        [
         121.622861,
         29.196639
        ],
        [
         121.622067,
         29.198933
        ],
        [
         121.622861,
         29.196639
        ],
        [
         121.625347,
         29.19391
        ],
        [
         121.622861,
         29.196639
        ]
       ],
       [
        [
         121.60125,
         29.239111
        ],
        [
         121.60125,
         29.239111
        ],
        [
         121.60311,
         29.236083
        ],
        [
         121.60125,
         29.239111
        ]
       ],
       [
        [
         121.597056,
         29.278333
        ],
        [
         121.597889,
         29.284972
        ],
        [
         121.597056,
         29.278333
        ],
        [
         121.599267,
         29.271724
        ],
        [
         121.597056,
         29.278333
        ]
       ],
       [
        [
         121.589167,
         29.290389
        ],
        [
         121.594167,
         29.279556
        ],
        [
         121.594167,
         29.279556
        ],
        [
         121.589167,
         29.290389
        ]
       ],
       [
        [
         121.490579,
         29.231118
        ],
        [
         121.51143,
         29.227908
        ],
        [
         121.5169,
         29.239828
        ],
        [
         121.52234,
         29.244941
        ],
        [
         121.522338,
         29.251536
        ],
        [
         121.509473,
         29.251536
        ],
        [
         121.503333,
         29.254616
        ],
        [
         121.4293,
         29.24051
        ],
        [
         121.496145,
         29.214333
        ],
        [
         121.490579,
         29.231118
        ]
       ],
       [
        [
         121.620808,
         29.275832
        ],
        [
         121.619176,
         29.276335
        ],
        [
         121.620897,
         29.271185
        ],
        [
         121.620808,
         29.275832
        ]
       ],
       [
        [
         121.606597,
         29.076081
        ],
        [
         121.611581,
         29.08859
        ],
        [
         121.593912,
         29.08929
        ],
        [
         121.572673,
         29.102351
        ],
        [
         121.563845,
         29.102364
        ],
        [
         121.539143,
         29.093846
        ],
        [
         121.525968,
         29.091506
        ],
        [
         121.541874,
         29.081623
        ],
        [
         121.542838,
         29.081939
        ],
        [
         121.548082,
         29.077765
        ],
        [
         121.549962,
         29.076597
        ],
        [
         121.588716,
         29.071524
        ],
        [
         121.598751,
         29.06299
        ],
        [
         121.608707,
         29.063416
        ],
        [
         121.611148,
         29.070682
        ],
        [
         121.606597,
         29.076081
        ]
       ],
       [
        [
         121.562472,
         29.15625
        ],
        [
         121.552861,
         29.152472
        ],
        [
         121.552861,
         29.152472
        ],
        [
         121.562472,
         29.15625
        ]
       ],
       [
        [
         121.582917,
         29.150833
        ],
        [
         121.583333,
         29.160361
        ],
        [
         121.582917,
         29.150833
        ],
        [
         121.574944,
         29.147889
        ],
        [
         121.582917,
         29.150833
        ]
       ],
       [
        [
         121.5975,
         29.159583
        ],
        [
         121.5975,
         29.159583
        ],
        [
         121.583333,
         29.160361
        ],
        [
         121.5975,
         29.159583
        ]
       ],
       [
        [
         121.455597,
         29.153112
        ],
        [
         121.452861,
         29.153306
        ],
        [
         121.452861,
         29.153306
        ],
        [
         121.455597,
         29.153112
        ]
       ],
       [
        [
         121.452889,
         29.151639
        ],
        [
         121.459583,
         29.148333
        ],
        [
         121.459583,
         29.148333
        ],
        [
         121.452889,
         29.151639
        ]
       ],
       [
        [
         121.666807,
         29.152971
        ],
        [
         121.667917,
         29.153333
        ],
        [
         121.667917,
         29.153333
        ],
        [
         121.666807,
         29.152971
        ]
       ],
       [
        [
         121.665417,
         29.154167
        ],
        [
         121.665361,
         29.1525
        ],
        [
         121.665361,
         29.1525
        ],
        [
         121.665417,
         29.154167
        ]
       ],
       [
        [
         121.674111,
         29.15625
        ],
        [
         121.674111,
         29.15625
        ],
        [
         121.673417,
         29.155524
        ],
        [
         121.674111,
         29.15625
        ]
       ],
       [
        [
         121.669028,
         29.157167
        ],
        [
         121.667028,
         29.159167
        ],
        [
         121.667028,
         29.159167
        ],
        [
         121.669028,
         29.157167
        ]
       ],
       [
        [
         121.668704,
         29.156926
        ],
        [
         121.669528,
         29.156667
        ],
        [
         121.669528,
         29.156667
        ],
        [
         121.668704,
         29.156926
        ]
       ],
       [
        [
         121.489139,
         29.167083
        ],
        [
         121.489139,
         29.167083
        ],
        [
         121.488722,
         29.166667
        ],
        [
         121.491667,
         29.163722
        ],
        [
         121.491757,
         29.164451
        ],
        [
         121.491667,
         29.163722
        ],
        [
         121.488722,
         29.166667
        ],
        [
         121.489139,
         29.167083
        ]
       ],
       [
        [
         121.492028,
         29.166639
        ],
        [
         121.492028,
         29.166639
        ],
        [
         121.49015,
         29.166928
        ],
        [
         121.492028,
         29.166639
        ]
       ],
       [
        [
         121.574556,
         29.175
        ],
        [
         121.574556,
         29.175
        ],
        [
         121.572,
         29.174972
        ],
        [
         121.572028,
         29.174181
        ],
        [
         121.572,
         29.174972
        ],
        [
         121.574556,
         29.175
        ]
       ],
       [
        [
         121.58875,
         29.1975
        ],
        [
         121.595361,
         29.200833
        ],
        [
         121.595361,
         29.200833
        ],
        [
         121.58875,
         29.1975
        ],
        [
         121.58875,
         29.196639
        ],
        [
         121.590418,
         29.196486
        ],
        [
         121.58875,
         29.196639
        ],
        [
         121.58875,
         29.1975
        ]
       ],
       [
        [
         121.586222,
         29.2
        ],
        [
         121.586222,
         29.200806
        ],
        [
         121.586222,
         29.200806
        ],
        [
         121.586222,
         29.2
        ],
        [
         121.587568,
         29.199552
        ],
        [
         121.586222,
         29.2
        ]
       ],
       [
        [
         121.588722,
         29.199167
        ],
        [
         121.588722,
         29.199167
        ],
        [
         121.587833,
         29.19975
        ],
        [
         121.588722,
         29.199167
        ]
       ],
       [
        [
         121.611148,
         29.203481
        ],
        [
         121.607889,
         29.204111
        ],
        [
         121.607889,
         29.204111
        ],
        [
         121.611148,
         29.203481
        ]
       ],
       [
        [
         121.600444,
         29.209139
        ],
        [
         121.600361,
         29.207472
        ],
        [
         121.600361,
         29.207472
        ],
        [
         121.600444,
         29.209139
        ]
       ],
       [
        [
         121.568333,
         29.242889
        ],
        [
         121.573958,
         29.23916
        ],
        [
         121.568333,
         29.242889
        ],
        [
         121.565028,
         29.24125
        ],
        [
         121.568333,
         29.242889
        ]
       ],
       [
        [
         121.579167,
         29.238722
        ],
        [
         121.579167,
         29.238722
        ],
        [
         121.576674,
         29.23812
        ],
        [
         121.579167,
         29.238722
        ]
       ],
       [
        [
         121.575778,
         29.227889
        ],
        [
         121.575778,
         29.227889
        ],
        [
         121.57852,
         29.230255
        ],
        [
         121.575778,
         29.227889
        ]
       ],
       [
        [
         121.568333,
         29.233722
        ],
        [
         121.567891,
         29.233012
        ],
        [
         121.568333,
         29.233722
        ],
        [
         121.574167,
         29.232917
        ],
        [
         121.568333,
         29.233722
        ]
       ],
       [
        [
         121.560389,
         29.236611
        ],
        [
         121.554583,
         29.240806
        ],
        [
         121.55457,
         29.241235
        ],
        [
         121.554583,
         29.240806
        ],
        [
         121.560389,
         29.236611
        ],
        [
         121.560861,
         29.227056
        ],
        [
         121.560861,
         29.227056
        ],
        [
         121.560389,
         29.236611
        ]
       ],
       [
        [
         121.68875,
         28.980806
        ],
        [
         121.68875,
         28.980806
        ],
        [
         121.68875,
         28.980777
        ],
        [
         121.68875,
         28.980806
        ]
       ],
       [
        [
         121.680417,
         28.985833
        ],
        [
         121.680417,
         28.985833
        ],
        [
         121.68375,
         28.985806
        ],
        [
         121.68375,
         28.985806
        ],
        [
         121.680417,
         28.985833
        ]
       ],
       [
        [
         121.736936,
         28.987991
        ],
        [
         121.739556,
         28.989944
        ],
        [
         121.739556,
         28.989944
        ],
        [
         121.736936,
         28.987991
        ]
       ],
       [
        [
         121.758722,
         28.994139
        ],
        [
         121.762556,
         28.99875
        ],
        [
         121.762556,
         28.99875
        ],
        [
         121.758722,
         28.994139
        ],
        [
         121.75875,
         28.992472
        ],
        [
         121.761509,
         28.991361
        ],
        [
         121.75875,
         28.992472
        ],
        [
         121.758722,
         28.994139
        ]
       ],
       [
        [
         121.757083,
         29.004944
        ],
        [
         121.760806,
         29.003722
        ],
        [
         121.760806,
         29.003722
        ],
        [
         121.757083,
         29.004944
        ]
       ],
       [
        [
         121.675361,
         29.044167
        ],
        [
         121.675361,
         29.044167
        ],
        [
         121.677685,
         29.0447
        ],
        [
         121.675361,
         29.044167
        ]
       ],
       [
        [
         121.720361,
         29.054111
        ],
        [
         121.720361,
         29.054111
        ],
        [
         121.721956,
         29.054672
        ],
        [
         121.720361,
         29.054111
        ]
       ],
       [
        [
         121.720417,
         29.055833
        ],
        [
         121.721223,
         29.055561
        ],
        [
         121.720417,
         29.055833
        ],
        [
         121.720389,
         29.054969
        ],
        [
         121.720417,
         29.055833
        ]
       ],
       [
        [
         121.677861,
         29.066667
        ],
        [
         121.677942,
         29.067452
        ],
        [
         121.677861,
         29.066667
        ],
        [
         121.685389,
         29.065806
        ],
        [
         121.677861,
         29.066667
        ]
       ],
       [
        [
         121.695806,
         29.09875
        ],
        [
         121.695806,
         29.09875
        ],
        [
         121.691278,
         29.095778
        ],
        [
         121.695806,
         29.09875
        ]
       ],
       [
        [
         121.704556,
         29.083306
        ],
        [
         121.704556,
         29.083306
        ],
        [
         121.705389,
         29.089167
        ],
        [
         121.704556,
         29.083306
        ]
       ],
       [
        [
         121.741847,
         29.094875
        ],
        [
         121.747472,
         29.09375
        ],
        [
         121.747472,
         29.09375
        ],
        [
         121.741847,
         29.094875
        ]
       ],
       [
        [
         121.74125,
         29.096611
        ],
        [
         121.741222,
         29.095
        ],
        [
         121.741222,
         29.095
        ],
        [
         121.74125,
         29.096611
        ]
       ],
       [
        [
         121.743333,
         29.101222
        ],
        [
         121.747029,
         29.099021
        ],
        [
         121.743333,
         29.101222
        ],
        [
         121.74125,
         29.096611
        ],
        [
         121.743333,
         29.101222
        ]
       ],
       [
        [
         121.787083,
         29.210778
        ],
        [
         121.792917,
         29.225
        ],
        [
         121.792568,
         29.232421
        ],
        [
         121.792917,
         29.225
        ],
        [
         121.787083,
         29.210778
        ]
       ],
       [
        [
         121.787056,
         29.205806
        ],
        [
         121.793306,
         29.202083
        ],
        [
         121.802861,
         29.218333
        ],
        [
         121.793306,
         29.202083
        ],
        [
         121.787056,
         29.205806
        ],
        [
         121.787083,
         29.210778
        ],
        [
         121.787056,
         29.205806
        ]
       ],
       [
        [
         121.813722,
         29.227472
        ],
        [
         121.81417,
         29.230522
        ],
        [
         121.813722,
         29.227472
        ],
        [
         121.802861,
         29.218333
        ],
        [
         121.813722,
         29.227472
        ]
       ],
       [
        [
         121.805739,
         29.198706
        ],
        [
         121.799139,
         29.201278
        ],
        [
         121.80625,
         29.214111
        ],
        [
         121.799139,
         29.201278
        ],
        [
         121.805739,
         29.198706
        ]
       ],
       [
        [
         121.830083,
         29.175992
        ],
        [
         121.828361,
         29.17625
        ],
        [
         121.8133,
         29.193291
        ],
        [
         121.828361,
         29.17625
        ],
        [
         121.830083,
         29.175992
        ]
       ],
       [
        [
         121.849139,
         29.162056
        ],
        [
         121.849139,
         29.162056
        ],
        [
         121.840833,
         29.166222
        ],
        [
         121.834111,
         29.175389
        ],
        [
         121.834111,
         29.175389
        ],
        [
         121.840833,
         29.166222
        ],
        [
         121.849139,
         29.162056
        ]
       ],
       [
        [
         121.89399,
         29.180629
        ],
        [
         121.888333,
         29.178722
        ],
        [
         121.88693,
         29.176792
        ],
        [
         121.888333,
         29.178722
        ],
        [
         121.89399,
         29.180629
        ]
       ],
       [
        [
         121.903361,
         29.18875
        ],
        [
         121.895833,
         29.18125
        ],
        [
         121.895833,
         29.18125
        ],
        [
         121.903361,
         29.18875
        ]
       ],
       [
        [
         121.904167,
         29.157861
        ],
        [
         121.904562,
         29.160312
        ],
        [
         121.904167,
         29.157861
        ],
        [
         121.904167,
         29.157861
        ]
       ],
       [
        [
         121.870389,
         29.131639
        ],
        [
         121.871841,
         29.131585
        ],
        [
         121.870389,
         29.131639
        ],
        [
         121.870389,
         29.135
        ],
        [
         121.878114,
         29.148458
        ],
        [
         121.870389,
         29.135
        ],
        [
         121.870389,
         29.131639
        ]
       ],
       [
        [
         121.890806,
         29.112889
        ],
        [
         121.90875,
         29.113333
        ],
        [
         121.890806,
         29.112889
        ],
        [
         121.890806,
         29.124583
        ],
        [
         121.886481,
         29.127706
        ],
        [
         121.890806,
         29.124583
        ],
        [
         121.890806,
         29.112889
        ]
       ],
       [
        [
         121.907917,
         29.094111
        ],
        [
         121.912895,
         29.099113
        ],
        [
         121.907917,
         29.094111
        ],
        [
         121.907917,
         29.094111
        ]
       ],
       [
        [
         121.909556,
         29.084167
        ],
        [
         121.902056,
         29.079972
        ],
        [
         121.9025,
         29.075389
        ],
        [
         121.9025,
         29.075389
        ],
        [
         121.902056,
         29.079972
        ],
        [
         121.909556,
         29.084167
        ],
        [
         121.912917,
         29.091639
        ],
        [
         121.907973,
         29.094083
        ],
        [
         121.912917,
         29.091639
        ],
        [
         121.909556,
         29.084167
        ]
       ],
       [
        [
         121.935833,
         29.077083
        ],
        [
         121.930806,
         29.075389
        ],
        [
         121.929876,
         29.076577
        ],
        [
         121.930806,
         29.075389
        ],
        [
         121.935833,
         29.077083
        ]
       ],
       [
        [
         121.929528,
         29.060833
        ],
        [
         121.929528,
         29.060833
        ],
        [
         121.935833,
         29.077083
        ],
        [
         121.929528,
         29.060833
        ]
       ],
       [
        [
         121.945,
         29.053722
        ],
        [
         121.948046,
         29.055676
        ],
        [
         121.945,
         29.053722
        ],
        [
         121.944194,
         29.059556
        ],
        [
         121.938333,
         29.057917
        ],
        [
         121.944194,
         29.059556
        ],
        [
         121.945,
         29.053722
        ]
       ],
       [
        [
         121.813246,
         29.055198
        ],
        [
         121.81375,
         29.054972
        ],
        [
         121.81375,
         29.054972
        ],
        [
         121.813246,
         29.055198
        ]
       ],
       [
        [
         121.837917,
         29.074972
        ],
        [
         121.837917,
         29.075833
        ],
        [
         121.837917,
         29.075833
        ],
        [
         121.837917,
         29.074972
        ],
        [
         121.837917,
         29.074972
        ]
       ],
       [
        [
         121.841132,
         29.076291
        ],
        [
         121.843778,
         29.076667
        ],
        [
         121.843778,
         29.076667
        ],
        [
         121.841132,
         29.076291
        ]
       ],
       [
        [
         121.780328,
         29.080348
        ],
        [
         121.781667,
         29.082028
        ],
        [
         121.781667,
         29.082028
        ],
        [
         121.780328,
         29.080348
        ]
       ],
       [
        [
         121.810861,
         29.103722
        ],
        [
         121.796194,
         29.094139
        ],
        [
         121.796194,
         29.094139
        ],
        [
         121.810861,
         29.103722
        ]
       ],
       [
        [
         121.798333,
         29.08625
        ],
        [
         121.785389,
         29.082528
        ],
        [
         121.798333,
         29.08625
        ],
        [
         121.799583,
         29.089972
        ],
        [
         121.796767,
         29.093435
        ],
        [
         121.799583,
         29.089972
        ],
        [
         121.798333,
         29.08625
        ]
       ],
       [
        [
         121.785444,
         29.08
        ],
        [
         121.789194,
         29.07625
        ],
        [
         121.799662,
         29.077376
        ],
        [
         121.789194,
         29.07625
        ],
        [
         121.785444,
         29.08
        ],
        [
         121.785389,
         29.082528
        ],
        [
         121.785444,
         29.08
        ]
       ],
       [
        [
         121.804167,
         29.077861
        ],
        [
         121.804167,
         29.077861
        ],
        [
         121.806482,
         29.073601
        ],
        [
         121.804167,
         29.077861
        ]
       ],
       [
        [
         121.801694,
         29.066222
        ],
        [
         121.802083,
         29.066312
        ],
        [
         121.801694,
         29.066222
        ],
        [
         121.799556,
         29.069111
        ],
        [
         121.807111,
         29.072444
        ],
        [
         121.807111,
         29.072444
        ],
        [
         121.799556,
         29.069111
        ],
        [
         121.801694,
         29.066222
        ]
       ],
       [
        [
         121.812472,
         29.068722
        ],
        [
         121.812472,
         29.068722
        ],
        [
         121.815232,
         29.062863
        ],
        [
         121.812472,
         29.068722
        ]
       ],
       [
        [
         121.822444,
         29.057917
        ],
        [
         121.827444,
         29.055389
        ],
        [
         121.832056,
         29.062472
        ],
        [
         121.827444,
         29.055389
        ],
        [
         121.822444,
         29.057917
        ],
        [
         121.818361,
         29.056222
        ],
        [
         121.818361,
         29.056222
        ],
        [
         121.822444,
         29.057917
        ]
       ],
       [
        [
         121.834764,
         29.076861
        ],
        [
         121.833306,
         29.073722
        ],
        [
         121.827056,
         29.072472
        ],
        [
         121.833306,
         29.073722
        ],
        [
         121.834764,
         29.076861
        ]
       ],
       [
        [
         121.828306,
         29.082889
        ],
        [
         121.836222,
         29.08
        ],
        [
         121.836222,
         29.08
        ],
        [
         121.828306,
         29.082889
        ]
       ],
       [
        [
         121.837028,
         29.089972
        ],
        [
         121.834972,
         29.087083
        ],
        [
         121.830597,
         29.087708
        ],
        [
         121.834972,
         29.087083
        ],
        [
         121.837028,
         29.089972
        ]
       ],
       [
        [
         121.782056,
         29.144944
        ],
        [
         121.782056,
         29.144944
        ],
        [
         121.787083,
         29.144139
        ],
        [
         121.782056,
         29.144944
        ]
       ],
       [
        [
         121.781194,
         29.127472
        ],
        [
         121.781222,
         29.13
        ],
        [
         121.782246,
         29.131148
        ],
        [
         121.781222,
         29.13
        ],
        [
         121.781194,
         29.127472
        ]
       ],
       [
        [
         121.78457,
         29.126208
        ],
        [
         121.786222,
         29.127444
        ],
        [
         121.782858,
         29.127463
        ],
        [
         121.786222,
         29.127444
        ],
        [
         121.78457,
         29.126208
        ]
       ],
       [
        [
         121.785,
         29.116222
        ],
        [
         121.784082,
         29.120076
        ],
        [
         121.785,
         29.116222
        ],
        [
         121.785,
         29.116222
        ]
       ],
       [
        [
         121.803212,
         29.121038
        ],
        [
         121.802472,
         29.119583
        ],
        [
         121.802472,
         29.119583
        ],
        [
         121.803212,
         29.121038
        ]
       ],
       [
        [
         121.804167,
         29.122917
        ],
        [
         121.804167,
         29.122917
        ],
        [
         121.805778,
         29.117889
        ],
        [
         121.804167,
         29.122917
        ]
       ],
       [
        [
         121.8325,
         29.107917
        ],
        [
         121.8325,
         29.107917
        ],
        [
         121.805778,
         29.117889
        ],
        [
         121.8325,
         29.107917
        ]
       ],
       [
        [
         121.851694,
         29.09375
        ],
        [
         121.851694,
         29.09375
        ],
        [
         121.849139,
         29.097917
        ],
        [
         121.842472,
         29.098722
        ],
        [
         121.849139,
         29.097917
        ],
        [
         121.851694,
         29.09375
        ]
       ],
       [
        [
         121.858278,
         29.09125
        ],
        [
         121.857509,
         29.095225
        ],
        [
         121.858278,
         29.09125
        ],
        [
         121.858278,
         29.09125
        ]
       ],
       [
        [
         121.866167,
         29.109194
        ],
        [
         121.866167,
         29.109194
        ],
        [
         121.871044,
         29.110777
        ],
        [
         121.866167,
         29.109194
        ]
       ],
       [
        [
         121.877877,
         29.10928
        ],
        [
         121.876639,
         29.10875
        ],
        [
         121.8725,
         29.11125
        ],
        [
         121.8725,
         29.11125
        ],
        [
         121.876639,
         29.10875
        ],
        [
         121.877877,
         29.10928
        ]
       ],
       [
        [
         121.889528,
         29.115806
        ],
        [
         121.886729,
         29.115493
        ],
        [
         121.889528,
         29.115806
        ],
        [
         121.889528,
         29.115806
        ]
       ],
       [
        [
         121.87093,
         29.127656
        ],
        [
         121.871667,
         29.127056
        ],
        [
         121.885,
         29.125389
        ],
        [
         121.871667,
         29.127056
        ],
        [
         121.87093,
         29.127656
        ]
       ],
       [
        [
         121.830249,
         29.141528
        ],
        [
         121.839139,
         29.140417
        ],
        [
         121.854125,
         29.14332
        ],
        [
         121.839139,
         29.140417
        ],
        [
         121.830249,
         29.141528
        ]
       ],
       [
        [
         121.808257,
         29.149204
        ],
        [
         121.813306,
         29.152056
        ],
        [
         121.818122,
         29.148214
        ],
        [
         121.813306,
         29.152056
        ],
        [
         121.808257,
         29.149204
        ]
       ],
       [
        [
         121.800028,
         29.144556
        ],
        [
         121.800028,
         29.144556
        ],
        [
         121.794167,
         29.15125
        ],
        [
         121.800028,
         29.144556
        ]
       ],
       [
        [
         121.7875,
         29.152056
        ],
        [
         121.784778,
         29.1485
        ],
        [
         121.7875,
         29.152056
        ],
        [
         121.794167,
         29.15125
        ],
        [
         121.7875,
         29.152056
        ]
       ],
       [
        [
         121.824167,
         29.150444
        ],
        [
         121.825417,
         29.147528
        ],
        [
         121.824167,
         29.150444
        ],
        [
         121.81625,
         29.150806
        ],
        [
         121.81625,
         29.150806
        ],
        [
         121.824167,
         29.150444
        ]
       ],
       [
        [
         121.815361,
         29.153333
        ],
        [
         121.815361,
         29.154139
        ],
        [
         121.823694,
         29.154944
        ],
        [
         121.815361,
         29.154139
        ],
        [
         121.815361,
         29.153333
        ],
        [
         121.815361,
         29.153333
        ]
       ],
       [
        [
         121.804972,
         29.194556
        ],
        [
         121.809912,
         29.192472
        ],
        [
         121.804972,
         29.194556
        ],
        [
         121.795206,
         29.196411
        ],
        [
         121.804972,
         29.194556
        ]
       ],
       [
        [
         121.782083,
         29.176639
        ],
        [
         121.785,
         29.19375
        ],
        [
         121.785,
         29.19375
        ],
        [
         121.782083,
         29.176639
        ]
       ],
       [
        [
         121.837917,
         29.161611
        ],
        [
         121.837917,
         29.161611
        ],
        [
         121.809167,
         29.158722
        ],
        [
         121.809167,
         29.158722
        ],
        [
         121.837917,
         29.161611
        ]
       ],
       [
        [
         121.792722,
         29.200181
        ],
        [
         121.794611,
         29.198306
        ],
        [
         121.794611,
         29.198306
        ],
        [
         121.792722,
         29.200181
        ]
       ],
       [
        [
         121.909556,
         29.074139
        ],
        [
         121.909556,
         29.074139
        ],
        [
         121.905417,
         29.075806
        ],
        [
         121.905417,
         29.075806
        ],
        [
         121.909556,
         29.074139
        ]
       ],
       [
        [
         121.898722,
         29.075806
        ],
        [
         121.898722,
         29.075806
        ],
        [
         121.895389,
         29.075
        ],
        [
         121.895389,
         29.075
        ],
        [
         121.898722,
         29.075806
        ]
       ],
       [
        [
         121.919583,
         29.077472
        ],
        [
         121.915417,
         29.0775
        ],
        [
         121.915417,
         29.078306
        ],
        [
         121.916045,
         29.078583
        ],
        [
         121.915417,
         29.078306
        ],
        [
         121.915417,
         29.0775
        ],
        [
         121.919583,
         29.077472
        ]
       ],
       [
        [
         121.918306,
         29.079583
        ],
        [
         121.918306,
         29.079583
        ],
        [
         121.919583,
         29.077472
        ],
        [
         121.918306,
         29.079583
        ]
       ],
       [
        [
         121.862528,
         29.169556
        ],
        [
         121.854556,
         29.164167
        ],
        [
         121.862528,
         29.169556
        ],
        [
         121.875417,
         29.1675
        ],
        [
         121.875417,
         29.1675
        ],
        [
         121.862528,
         29.169556
        ]
       ],
       [
        [
         121.864652,
         29.161698
        ],
        [
         121.860861,
         29.161222
        ],
        [
         121.854556,
         29.163306
        ],
        [
         121.860861,
         29.161222
        ],
        [
         121.864652,
         29.161698
        ]
       ],
       [
        [
         121.90012,
         29.172195
        ],
        [
         121.903694,
         29.170806
        ],
        [
         121.903694,
         29.170806
        ],
        [
         121.90012,
         29.172195
        ]
       ],
       [
        [
         121.915068,
         29.131545
        ],
        [
         121.909951,
         29.134127
        ],
        [
         121.911363,
         29.133107
        ],
        [
         121.911363,
         29.131454
        ],
        [
         121.915068,
         29.131545
        ]
       ],
       [
        [
         121.84686,
         29.122168
        ],
        [
         121.847265,
         29.122299
        ],
        [
         121.846064,
         29.123276
        ],
        [
         121.844635,
         29.122999
        ],
        [
         121.84686,
         29.122168
        ]
       ]
      ],
      "type": "Polygon"
     }
    ],
    "type": "GeometryCollection"
   },
   "properties": {
    "roi_id": "ZJ-SMB",
    "name_zh": "三门湾",
    "name_en": "Sanmen Bay",
    "status": "PROVISIONAL_TIER_C_DERIVED",
    "provenance_tier": "C_DERIVED",
    "onshore_belt_m": 2000.0,
    "geometry_fingerprint": "e2a68b98106c2ddb256785097020b315901b5832b8e1ede978add7c70adc22f9",
    "logical_fingerprint": "aaf772adb8b984e361cc7ea7b2cbbb34490e115c88add47f0dd85a28aa1063ee",
    "base_coastline": "GSHHG v2.3.7 (c) UH/NOAA, LGPL-3.0-or-later; Wessel & Smith 1996, DOI 10.1029/96JB00104",
    "derived_for": "Spartina Earth M2.1a sampling frame; not an official government boundary"
   }
  },
  {
   "type": "Feature",
   "geometry": {
    "coordinates": [
     [
      [
       121.104867,
       27.953173
      ],
      [
       121.07437,
       27.978177
      ],
      [
       121.073538,
       27.978859
      ],
      [
       121.066099,
       27.984959
      ],
      [
       121.057444,
       27.992056
      ],
      [
       121.039923,
       27.993241
      ],
      [
       120.974674,
       27.997655
      ],
      [
       120.94,
       28.0
      ],
      [
       120.968081,
       28.043756
      ],
      [
       120.969193,
       28.044648
      ],
      [
       120.971162,
       28.047874
      ],
      [
       120.971107,
       28.048468
      ],
      [
       120.988942,
       28.076236
      ],
      [
       120.997612,
       28.089741
      ],
      [
       120.997808,
       28.090047
      ],
      [
       121.032861,
       28.144648
      ],
      [
       121.063822,
       28.192915
      ],
      [
       121.071502,
       28.190728
      ],
      [
       121.069778,
       28.194977
      ],
      [
       121.076583,
       28.205599
      ],
      [
       121.073759,
       28.208396
      ],
      [
       121.078633,
       28.215988
      ],
      [
       121.092756,
       28.222932
      ],
      [
       121.092402,
       28.224607
      ],
      [
       121.104796,
       28.245028
      ],
      [
       121.099537,
       28.248534
      ],
      [
       121.113747,
       28.270645
      ],
      [
       121.132862,
       28.300419
      ],
      [
       121.133578,
       28.301535
      ],
      [
       121.16733,
       28.35411
      ],
      [
       121.178163,
       28.370985
      ],
      [
       121.178163,
       28.370985
      ],
      [
       121.191473,
       28.391717
      ],
      [
       121.200056,
       28.389583
      ],
      [
       121.200056,
       28.389583
      ],
      [
       121.191473,
       28.391717
      ],
      [
       121.2,
       28.405
      ],
      [
       121.200566,
       28.380467
      ],
      [
       121.200566,
       28.380467
      ],
      [
       121.200858,
       28.367836
      ],
      [
       121.200838,
       28.367856
      ],
      [
       121.200858,
       28.367836
      ],
      [
       121.200874,
       28.367129
      ],
      [
       121.200389,
       28.367472
      ],
      [
       121.200389,
       28.367472
      ],
      [
       121.200874,
       28.367129
      ],
      [
       121.201104,
       28.35718
      ],
      [
       121.201221,
       28.352125
      ],
      [
       121.201221,
       28.352125
      ],
      [
       121.20459,
       28.206221
      ],
      [
       121.20459,
       28.206221
      ],
      [
       121.205807,
       28.153593
      ],
      [
       121.205439,
       28.153547
      ],
      [
       121.204532,
       28.14958
      ],
      [
       121.195667,
       28.147489
      ],
      [
       121.192689,
       28.142329
      ],
      [
       121.187456,
       28.140764
      ],
      [
       121.185997,
       28.134726
      ],
      [
       121.173875,
       28.133552
      ],
      [
       121.168911,
       28.123602
      ],
      [
       121.154639,
       28.120108
      ],
      [
       121.156697,
       28.114651
      ],
      [
       121.162384,
       28.113446
      ],
      [
       121.165376,
       28.094621
      ],
      [
       121.178458,
       28.083681
      ],
      [
       121.175636,
       28.071633
      ],
      [
       121.182927,
       28.075146
      ],
      [
       121.186098,
       28.068022
      ],
      [
       121.189256,
       28.069292
      ],
      [
       121.207665,
       28.073054
      ],
      [
       121.207889,
       28.063333
      ],
      [
       121.19942,
       28.05285
      ],
      [
       121.19942,
       28.05285
      ],
      [
       121.133479,
       27.971222
      ],
      [
       121.118899,
       27.953174
      ],
      [
       121.104867,
       27.953173
      ]
     ],
     [
      [
       121.2,
       28.359556
      ],
      [
       121.2,
       28.359556
      ],
      [
       121.201104,
       28.35718
      ],
      [
       121.2,
       28.359556
      ]
     ],
     [
      [
       121.179139,
       28.357028
      ],
      [
       121.178929,
       28.359776
      ],
      [
       121.179139,
       28.357028
      ],
      [
       121.179139,
       28.357028
      ]
     ],
     [
      [
       121.182917,
       28.363333
      ],
      [
       121.182917,
       28.363333
      ],
      [
       121.180613,
       28.36286
      ],
      [
       121.182917,
       28.363333
      ]
     ],
     [
      [
       121.196667,
       28.382889
      ],
      [
       121.192889,
       28.3825
      ],
      [
       121.192889,
       28.3825
      ],
      [
       121.196667,
       28.382889
      ],
      [
       121.199675,
       28.388831
      ],
      [
       121.196667,
       28.382889
      ]
     ],
     [
      [
       121.194556,
       28.356611
      ],
      [
       121.194583,
       28.354139
      ],
      [
       121.197444,
       28.349556
      ],
      [
       121.197444,
       28.349556
      ],
      [
       121.194583,
       28.354139
      ],
      [
       121.194556,
       28.356611
      ],
      [
       121.198096,
       28.358526
      ],
      [
       121.194556,
       28.356611
      ]
     ],
     [
      [
       121.204528,
       28.190778
      ],
      [
       121.197917,
       28.184972
      ],
      [
       121.204528,
       28.190778
      ],
      [
       121.202472,
       28.205389
      ],
      [
       121.204528,
       28.190778
      ]
     ],
     [
      [
       121.188333,
       28.169611
      ],
      [
       121.188333,
       28.169611
      ],
      [
       121.200833,
       28.171194
      ],
      [
       121.188333,
       28.169611
      ]
     ],
     [
      [
       121.187083,
       28.164139
      ],
      [
       121.181667,
       28.162861
      ],
      [
       121.187083,
       28.164139
      ],
      [
       121.187744,
       28.167031
      ],
      [
       121.187083,
       28.164139
      ]
     ],
     [
      [
       121.169972,
       28.154583
      ],
      [
       121.169167,
       28.15125
      ],
      [
       121.16,
       28.150361
      ],
      [
       121.154194,
       28.138722
      ],
      [
       121.1475,
       28.137083
      ],
      [
       121.146639,
       28.14125
      ],
      [
       121.127889,
       28.139167
      ],
      [
       121.146639,
       28.14125
      ],
      [
       121.1475,
       28.137083
      ],
      [
       121.154194,
       28.138722
      ],
      [
       121.16,
       28.150361
      ],
      [
       121.169167,
       28.15125
      ],
      [
       121.169972,
       28.154583
      ],
      [
       121.178333,
       28.157083
      ],
      [
       121.169972,
       28.154583
      ]
     ],
     [
      [
       121.135417,
       28.114167
      ],
      [
       121.132083,
       28.109139
      ],
      [
       121.135417,
       28.114167
      ],
      [
       121.127889,
       28.134111
      ],
      [
       121.135417,
       28.114167
      ]
     ],
     [
      [
       121.130389,
       28.101667
      ],
      [
       121.130389,
       28.101667
      ],
      [
       121.134583,
       28.106639
      ],
      [
       121.130389,
       28.101667
      ]
     ],
     [
      [
       121.146222,
       28.085833
      ],
      [
       121.151222,
       28.081653
      ],
      [
       121.146222,
       28.085833
      ],
      [
       121.144167,
       28.09875
      ],
      [
       121.144167,
       28.09875
      ],
      [
       121.146222,
       28.085833
      ]
     ],
     [
      [
       121.148333,
       28.062083
      ],
      [
       121.143481,
       28.061317
      ],
      [
       121.148333,
       28.062083
      ],
      [
       121.153694,
       28.066667
      ],
      [
       121.148333,
       28.062083
      ]
     ],
     [
      [
       121.15375,
       28.051667
      ],
      [
       121.149583,
       28.045833
      ],
      [
       121.15375,
       28.051667
      ],
      [
       121.152085,
       28.05332
      ],
      [
       121.15375,
       28.051667
      ]
     ],
     [
      [
       121.15875,
       28.024167
      ],
      [
       121.1525,
       28.02625
      ],
      [
       121.15875,
       28.024167
      ],
      [
       121.15875,
       28.024167
      ]
     ],
     [
      [
       121.139972,
       28.019556
      ],
      [
       121.139661,
       28.019245
      ],
      [
       121.139972,
       28.019556
      ],
      [
       121.1525,
       28.02625
      ],
      [
       121.139972,
       28.019556
      ]
     ],
     [
      [
       121.140389,
       28.084139
      ],
      [
       121.140389,
       28.084139
      ],
      [
       121.140389,
       28.084944
      ],
      [
       121.147056,
       28.084111
      ],
      [
       121.147056,
       28.084111
      ],
      [
       121.140389,
       28.084944
      ],
      [
       121.140389,
       28.084139
      ]
     ],
     [
      [
       121.147472,
       28.179556
      ],
      [
       121.149556,
       28.171667
      ],
      [
       121.152907,
       28.169273
      ],
      [
       121.149556,
       28.171667
      ],
      [
       121.147472,
       28.179556
      ]
     ],
     [
      [
       121.156639,
       28.192917
      ],
      [
       121.155825,
       28.192102
      ],
      [
       121.156639,
       28.192917
      ],
      [
       121.156639,
       28.192917
      ]
     ],
     [
      [
       121.167056,
       28.210806
      ],
      [
       121.170444,
       28.21
      ],
      [
       121.168729,
       28.209568
      ],
      [
       121.170444,
       28.21
      ],
      [
       121.167056,
       28.210806
      ]
     ],
     [
      [
       121.1666,
       28.239939
      ],
      [
       121.174611,
       28.239167
      ],
      [
       121.174611,
       28.239167
      ],
      [
       121.1666,
       28.239939
      ]
     ],
     [
      [
       121.147083,
       28.229167
      ],
      [
       121.147083,
       28.229167
      ],
      [
       121.153361,
       28.230389
      ],
      [
       121.147083,
       28.229167
      ]
     ],
     [
      [
       121.152889,
       28.211639
      ],
      [
       121.156123,
       28.212108
      ],
      [
       121.152889,
       28.211639
      ],
      [
       121.152889,
       28.211639
      ]
     ],
     [
      [
       121.157889,
       28.255833
      ],
      [
       121.15625,
       28.248306
      ],
      [
       121.156222,
       28.247444
      ],
      [
       121.15625,
       28.248306
      ],
      [
       121.157889,
       28.255833
      ],
      [
       121.164167,
       28.256278
      ],
      [
       121.157889,
       28.255833
      ]
     ],
     [
      [
       121.1975,
       28.262056
      ],
      [
       121.192083,
       28.261639
      ],
      [
       121.192056,
       28.259972
      ],
      [
       121.194944,
       28.256222
      ],
      [
       121.192056,
       28.259972
      ],
      [
       121.192083,
       28.261639
      ],
      [
       121.1975,
       28.262056
      ],
      [
       121.197703,
       28.2616
      ],
      [
       121.1975,
       28.262056
      ]
     ],
     [
      [
       121.145389,
       28.270806
      ],
      [
       121.145417,
       28.264944
      ],
      [
       121.145389,
       28.270806
      ],
      [
       121.145389,
       28.270806
      ]
     ],
     [
      [
       121.184944,
       28.35375
      ],
      [
       121.178306,
       28.350389
      ],
      [
       121.184944,
       28.35375
      ],
      [
       121.190417,
       28.348306
      ],
      [
       121.1908,
       28.344605
      ],
      [
       121.190417,
       28.348306
      ],
      [
       121.184944,
       28.35375
      ]
     ],
     [
      [
       121.165417,
       28.338278
      ],
      [
       121.165361,
       28.335833
      ],
      [
       121.165417,
       28.338278
      ],
      [
       121.170845,
       28.345877
      ],
      [
       121.165417,
       28.338278
      ]
     ],
     [
      [
       121.199556,
       28.329167
      ],
      [
       121.199146,
       28.332133
      ],
      [
       121.199556,
       28.329167
      ],
      [
       121.185,
       28.323778
      ],
      [
       121.199556,
       28.329167
      ]
     ],
     [
      [
       121.196222,
       28.361611
      ],
      [
       121.188722,
       28.359972
      ],
      [
       121.196222,
       28.361611
      ],
      [
       121.196222,
       28.361611
      ]
     ]
    ],
    "type": "Polygon"
   },
   "properties": {
    "roi_id": "ZJ-YQB",
    "name_zh": "乐清湾",
    "name_en": "Yueqing Bay",
    "status": "PROVISIONAL_TIER_C_DERIVED",
    "provenance_tier": "C_DERIVED",
    "onshore_belt_m": 2000.0,
    "geometry_fingerprint": "b42ca18b97597be94792b99680a9c190cfa73215d9ada40af4f991ad859041cd",
    "logical_fingerprint": "308bf031a4d9217d7768205cf7cafd0f16cb60f37a03c0e6cb1c571c70ae633d",
    "base_coastline": "GSHHG v2.3.7 (c) UH/NOAA, LGPL-3.0-or-later; Wessel & Smith 1996, DOI 10.1029/96JB00104",
    "derived_for": "Spartina Earth M2.1a sampling frame; not an official government boundary"
   }
  }
 ]
}